{"type":"FeatureCollection","crs":{"type":"name","properties":{"name":"urn:ogc:def:crs:EPSG::32635"}},"features":[{"type":"Feature","geometry":{"type":"Polygon","coordinates":[[[629508.47,5220244.84],[629640.21,5220289.11],[629701.37,5220210.1],[629557.44,5220164.74],[629508.47,5220244.84]]]},"properties":{"vineyard_id":"V1"}},{"type":"Feature","geometry":{"type":"Polygon","coordinates":[[[629559.21,5220158.29],[629703.92,5220205.28],[629765.95,5220123.85],[629632.54,5220081.16],[629559.21,5220158.29]]]},"properties":{"vineyard_id":"V2"}},{"type":"Feature","geometry":{"type":"Polygon","coordinates":[[[629698.16,5220096.4],[629735.33,5220109.38],[629781.19,5220022.73],[629738.31,5220010.43],[629698.16,5220096.4]]]},"properties":{"vineyard_id":"V3"}}]}