{"type":"FeatureCollection","crs":{"type":"name","properties":{"name":"urn:ogc:def:crs:EPSG::32635"}},"features":[{"type":"Feature","geometry":{"type":"Point","coordinates":[629575.57,5220210.65]},"properties":{"point_id":"IP-001","vineyard_id":"V1","row_id":"V1-R013","reason":"row_gap","reachable":true}},{"type":"Feature","geometry":{"type":"Point","coordinates":[629597.11,5220234.08]},"properties":{"point_id":"IP-002","vineyard_id":"V1","row_id":"V1-R023","reason":"row_gap","reachable":true}},{"type":"Feature","geometry":{"type":"Point","coordinates":[629610,5220226.33]},"properties":{"point_id":"IP-003","vineyard_id":"V1","row_id":"V1-R025","reason":"row_gap","reachable":true}},{"type":"Feature","geometry":{"type":"Point","coordinates":[629612.68,5220227.88]},"properties":{"point_id":"IP-004","vineyard_id":"V1","row_id":"V1-R026","reason":"row_gap","reachable":true}},{"type":"Feature","geometry":{"type":"Point","coordinates":[629606.93,5220246.62]},"properties":{"point_id":"IP-005","vineyard_id":"V1","row_id":"V1-R028","reason":"row_gap","reachable":true}},{"type":"Feature","geometry":{"type":"Point","coordinates":[629642.96,5220238.43]},"properties":{"point_id":"IP-006","vineyard_id":"V1","row_id":"V1-R036","reason":"row_gap","reachable":true}},{"type":"Feature","geometry":{"type":"Point","coordinates":[629632.38,5220257.79]},"properties":{"point_id":"IP-007","vineyard_id":"V1","row_id":"V1-R037","reason":"row_gap","reachable":true}},{"type":"Feature","geometry":{"type":"Point","coordinates":[629667.67,5220215.54]},"properties":{"point_id":"IP-008","vineyard_id":"V1","row_id":"V1-R038","reason":"row_gap","reachable":true}},{"type":"Feature","geometry":{"type":"Point","coordinates":[629660.47,5220250.59]},"properties":{"point_id":"IP-009","vineyard_id":"V1","row_id":"V1-R043","reason":"row_gap","reachable":true}},{"type":"Feature","geometry":{"type":"Point","coordinates":[629664.29,5220255.53]},"properties":{"point_id":"IP-010","vineyard_id":"V1","row_id":"V1-R045","reason":"row_gap","reachable":true}},{"type":"Feature","geometry":{"type":"Point","coordinates":[629603.28,5220142.97]},"properties":{"point_id":"IP-011","vineyard_id":"V2","row_id":"V2-R008","reason":"row_gap","reachable":true}},{"type":"Feature","geometry":{"type":"Point","coordinates":[629640.31,5220119.16]},"properties":{"point_id":"IP-012","vineyard_id":"V2","row_id":"V2-R012","reason":"row_gap","reachable":true}},{"type":"Feature","geometry":{"type":"Point","coordinates":[629636.89,5220175.55]},"properties":{"point_id":"IP-013","vineyard_id":"V2","row_id":"V2-R024","reason":"row_gap","reachable":true}},{"type":"Feature","geometry":{"type":"Point","coordinates":[629655.31,5220172.14]},"properties":{"point_id":"IP-014","vineyard_id":"V2","row_id":"V2-R028","reason":"row_gap","reachable":true}},{"type":"Feature","geometry":{"type":"Point","coordinates":[629719.04,5220122.14]},"properties":{"point_id":"IP-015","vineyard_id":"V2","row_id":"V2-R034","reason":"row_gap","reachable":true}},{"type":"Feature","geometry":{"type":"Point","coordinates":[629700.37,5220163.59]},"properties":{"point_id":"IP-016","vineyard_id":"V2","row_id":"V2-R038","reason":"row_gap","reachable":true}},{"type":"Feature","geometry":{"type":"Point","coordinates":[629707.48,5220159.36]},"properties":{"point_id":"IP-017","vineyard_id":"V2","row_id":"V2-R039","reason":"row_gap","reachable":true}},{"type":"Feature","geometry":{"type":"Point","coordinates":[629703.77,5220168.76]},"properties":{"point_id":"IP-018","vineyard_id":"V2","row_id":"V2-R040","reason":"row_gap","reachable":true}},{"type":"Feature","geometry":{"type":"Point","coordinates":[629708.75,5220176.8]},"properties":{"point_id":"IP-019","vineyard_id":"V2","row_id":"V2-R043","reason":"row_gap","reachable":true}},{"type":"Feature","geometry":{"type":"Point","coordinates":[629700.86,5220196.76]},"properties":{"point_id":"IP-020","vineyard_id":"V2","row_id":"V2-R045","reason":"row_gap","reachable":true}},{"type":"Feature","geometry":{"type":"Point","coordinates":[629722.16,5220056.33]},"properties":{"point_id":"IP-021","vineyard_id":"V3","row_id":"V3-R002","reason":"row_gap","reachable":true}},{"type":"Feature","geometry":{"type":"Point","coordinates":[629731.85,5220065.48]},"properties":{"point_id":"IP-022","vineyard_id":"V3","row_id":"V3-R006","reason":"row_gap","reachable":true}},{"type":"Feature","geometry":{"type":"Point","coordinates":[629754.16,5220042.47]},"properties":{"point_id":"IP-023","vineyard_id":"V3","row_id":"V3-R009","reason":"row_gap","reachable":true}},{"type":"Feature","geometry":{"type":"Point","coordinates":[629765.03,5220035.65]},"properties":{"point_id":"IP-024","vineyard_id":"V3","row_id":"V3-R011","reason":"row_gap","reachable":true}}]}