{"type":"FeatureCollection","crs":{"type":"name","properties":{"name":"urn:ogc:def:crs:EPSG::32635"}},"features":[{"type":"Feature","geometry":{"type":"Polygon","coordinates":[[[629512.45,5220242.06],[629557.38,5220168.8],[629559.71,5220169.52],[629514.53,5220242.76],[629512.45,5220242.06]]]},"properties":{"label":"interrow_area","vineyard_id":"V1","interrow_id":"V1-I001","row_ids":["V1-R001","V1-R002"],"interrow_cover":"bare_soil","area_m2":193.82}},{"type":"Feature","geometry":{"type":"Polygon","coordinates":[[[629515.39,5220243.05],[629560.56,5220169.8],[629562.9,5220170.52],[629517.47,5220243.75],[629515.39,5220243.05]]]},"properties":{"label":"interrow_area","vineyard_id":"V1","interrow_id":"V1-I002","row_ids":["V1-R002","V1-R003"],"interrow_cover":"bare_soil","area_m2":193.97}},{"type":"Feature","geometry":{"type":"Polygon","coordinates":[[[629518.32,5220244.04],[629563.75,5220170.81],[629566.09,5220171.52],[629520.41,5220244.74],[629518.32,5220244.04]]]},"properties":{"label":"interrow_area","vineyard_id":"V1","interrow_id":"V1-I003","row_ids":["V1-R003","V1-R004"],"interrow_cover":"mixed","area_m2":194.12}},{"type":"Feature","geometry":{"type":"Polygon","coordinates":[[[629521.26,5220245.03],[629566.94,5220171.81],[629569.28,5220172.52],[629523.34,5220245.73],[629521.26,5220245.03]]]},"properties":{"label":"interrow_area","vineyard_id":"V1","interrow_id":"V1-I004","row_ids":["V1-R004","V1-R005"],"interrow_cover":"bare_soil","area_m2":194.27}},{"type":"Feature","geometry":{"type":"Polygon","coordinates":[[[629524.2,5220246.02],[629570.13,5220172.81],[629572.47,5220173.53],[629526.28,5220246.72],[629524.2,5220246.02]]]},"properties":{"label":"interrow_area","vineyard_id":"V1","interrow_id":"V1-I005","row_ids":["V1-R005","V1-R006"],"interrow_cover":"bare_soil","area_m2":194.42}},{"type":"Feature","geometry":{"type":"Polygon","coordinates":[[[629527.13,5220247.01],[629573.32,5220173.81],[629575.66,5220174.53],[629529.22,5220247.71],[629527.13,5220247.01]]]},"properties":{"label":"interrow_area","vineyard_id":"V1","interrow_id":"V1-I006","row_ids":["V1-R006","V1-R007"],"interrow_cover":"vegetation","area_m2":194.57}},{"type":"Feature","geometry":{"type":"Polygon","coordinates":[[[629530.07,5220248],[629576.51,5220174.82],[629578.85,5220175.53],[629532.15,5220248.7],[629530.07,5220248]]]},"properties":{"label":"interrow_area","vineyard_id":"V1","interrow_id":"V1-I007","row_ids":["V1-R007","V1-R008"],"interrow_cover":"mixed","area_m2":194.72}},{"type":"Feature","geometry":{"type":"Polygon","coordinates":[[[629533,5220248.99],[629579.7,5220175.82],[629582.04,5220176.53],[629535.09,5220249.69],[629533,5220248.99]]]},"properties":{"label":"interrow_area","vineyard_id":"V1","interrow_id":"V1-I008","row_ids":["V1-R008","V1-R009"],"interrow_cover":"bare_soil","area_m2":194.87}},{"type":"Feature","geometry":{"type":"Polygon","coordinates":[[[629535.94,5220249.98],[629582.89,5220176.82],[629585.23,5220177.53],[629538.02,5220250.68],[629535.94,5220249.98]]]},"properties":{"label":"interrow_area","vineyard_id":"V1","interrow_id":"V1-I009","row_ids":["V1-R009","V1-R010"],"interrow_cover":"bare_soil","area_m2":195.02}},{"type":"Feature","geometry":{"type":"Polygon","coordinates":[[[629538.88,5220250.97],[629586.08,5220177.82],[629588.42,5220178.54],[629540.96,5220251.67],[629538.88,5220250.97]]]},"properties":{"label":"interrow_area","vineyard_id":"V1","interrow_id":"V1-I010","row_ids":["V1-R010","V1-R011"],"interrow_cover":"bare_soil","area_m2":195.17}},{"type":"Feature","geometry":{"type":"Polygon","coordinates":[[[629541.81,5220251.95],[629589.27,5220178.82],[629591.61,5220179.54],[629543.9,5220252.66],[629541.81,5220251.95]]]},"properties":{"label":"interrow_area","vineyard_id":"V1","interrow_id":"V1-I011","row_ids":["V1-R011","V1-R012"],"interrow_cover":"bare_soil","area_m2":195.32}},{"type":"Feature","geometry":{"type":"Polygon","coordinates":[[[629544.75,5220252.94],[629592.46,5220179.83],[629594.8,5220180.54],[629546.83,5220253.65],[629544.75,5220252.94]]]},"properties":{"label":"interrow_area","vineyard_id":"V1","interrow_id":"V1-I012","row_ids":["V1-R012","V1-R013"],"interrow_cover":"vegetation","area_m2":195.47}},{"type":"Feature","geometry":{"type":"Polygon","coordinates":[[[629547.68,5220253.93],[629595.65,5220180.83],[629597.99,5220181.54],[629549.77,5220254.64],[629547.68,5220253.93]]]},"properties":{"label":"interrow_area","vineyard_id":"V1","interrow_id":"V1-I013","row_ids":["V1-R013","V1-R014"],"interrow_cover":"unassessable","area_m2":195.63}},{"type":"Feature","geometry":{"type":"Polygon","coordinates":[[[629550.62,5220254.92],[629598.84,5220181.83],[629601.18,5220182.55],[629552.7,5220255.62],[629550.62,5220254.92]]]},"properties":{"label":"interrow_area","vineyard_id":"V1","interrow_id":"V1-I014","row_ids":["V1-R014","V1-R015"],"interrow_cover":"mixed","area_m2":195.78}},{"type":"Feature","geometry":{"type":"Polygon","coordinates":[[[629553.56,5220255.91],[629602.03,5220182.83],[629604.37,5220183.55],[629555.64,5220256.61],[629553.56,5220255.91]]]},"properties":{"label":"interrow_area","vineyard_id":"V1","interrow_id":"V1-I015","row_ids":["V1-R015","V1-R016"],"interrow_cover":"bare_soil","area_m2":195.93}},{"type":"Feature","geometry":{"type":"Polygon","coordinates":[[[629556.49,5220256.9],[629605.22,5220183.84],[629607.56,5220184.55],[629558.58,5220257.6],[629556.49,5220256.9]]]},"properties":{"label":"interrow_area","vineyard_id":"V1","interrow_id":"V1-I016","row_ids":["V1-R016","V1-R017"],"interrow_cover":"vegetation","area_m2":196.08}},{"type":"Feature","geometry":{"type":"Polygon","coordinates":[[[629559.43,5220257.89],[629608.41,5220184.84],[629610.75,5220185.55],[629561.51,5220258.59],[629559.43,5220257.89]]]},"properties":{"label":"interrow_area","vineyard_id":"V1","interrow_id":"V1-I017","row_ids":["V1-R017","V1-R018"],"interrow_cover":"bare_soil","area_m2":196.23}},{"type":"Feature","geometry":{"type":"Polygon","coordinates":[[[629562.36,5220258.88],[629611.6,5220185.84],[629613.94,5220186.56],[629564.45,5220259.58],[629562.36,5220258.88]]]},"properties":{"label":"interrow_area","vineyard_id":"V1","interrow_id":"V1-I018","row_ids":["V1-R018","V1-R019"],"interrow_cover":"bare_soil","area_m2":196.38}},{"type":"Feature","geometry":{"type":"Polygon","coordinates":[[[629565.3,5220259.87],[629614.79,5220186.84],[629617.13,5220187.56],[629567.38,5220260.57],[629565.3,5220259.87]]]},"properties":{"label":"interrow_area","vineyard_id":"V1","interrow_id":"V1-I019","row_ids":["V1-R019","V1-R020"],"interrow_cover":"vegetation","area_m2":196.53}},{"type":"Feature","geometry":{"type":"Polygon","coordinates":[[[629568.24,5220260.86],[629617.98,5220187.85],[629620.32,5220188.56],[629570.32,5220261.56],[629568.24,5220260.86]]]},"properties":{"label":"interrow_area","vineyard_id":"V1","interrow_id":"V1-I020","row_ids":["V1-R020","V1-R021"],"interrow_cover":"bare_soil","area_m2":196.69}},{"type":"Feature","geometry":{"type":"Polygon","coordinates":[[[629571.17,5220261.85],[629621.17,5220188.85],[629623.51,5220189.56],[629573.25,5220262.55],[629571.17,5220261.85]]]},"properties":{"label":"interrow_area","vineyard_id":"V1","interrow_id":"V1-I021","row_ids":["V1-R021","V1-R022"],"interrow_cover":"bare_soil","area_m2":196.84}},{"type":"Feature","geometry":{"type":"Polygon","coordinates":[[[629574.11,5220262.84],[629624.36,5220189.85],[629626.7,5220190.56],[629576.19,5220263.54],[629574.11,5220262.84]]]},"properties":{"label":"interrow_area","vineyard_id":"V1","interrow_id":"V1-I022","row_ids":["V1-R022","V1-R023"],"interrow_cover":"bare_soil","area_m2":196.99}},{"type":"Feature","geometry":{"type":"Polygon","coordinates":[[[629577.04,5220263.83],[629627.56,5220190.85],[629629.89,5220191.57],[629579.12,5220264.53],[629577.04,5220263.83]]]},"properties":{"label":"interrow_area","vineyard_id":"V1","interrow_id":"V1-I023","row_ids":["V1-R023","V1-R024"],"interrow_cover":"bare_soil","area_m2":197.14}},{"type":"Feature","geometry":{"type":"Polygon","coordinates":[[[629579.98,5220264.82],[629630.75,5220191.85],[629633.08,5220192.57],[629582.06,5220265.52],[629579.98,5220264.82]]]},"properties":{"label":"interrow_area","vineyard_id":"V1","interrow_id":"V1-I024","row_ids":["V1-R024","V1-R025"],"interrow_cover":"bare_soil","area_m2":197.29}},{"type":"Feature","geometry":{"type":"Polygon","coordinates":[[[629582.91,5220265.81],[629633.94,5220192.86],[629636.27,5220193.57],[629585,5220266.51],[629582.91,5220265.81]]]},"properties":{"label":"interrow_area","vineyard_id":"V1","interrow_id":"V1-I025","row_ids":["V1-R025","V1-R026"],"interrow_cover":"bare_soil","area_m2":197.45}},{"type":"Feature","geometry":{"type":"Polygon","coordinates":[[[629585.85,5220266.8],[629637.13,5220193.86],[629639.46,5220194.57],[629587.93,5220267.5],[629585.85,5220266.8]]]},"properties":{"label":"interrow_area","vineyard_id":"V1","interrow_id":"V1-I026","row_ids":["V1-R026","V1-R027"],"interrow_cover":"bare_soil","area_m2":197.6}},{"type":"Feature","geometry":{"type":"Polygon","coordinates":[[[629588.78,5220267.78],[629640.32,5220194.86],[629642.65,5220195.58],[629590.87,5220268.49],[629588.78,5220267.78]]]},"properties":{"label":"interrow_area","vineyard_id":"V1","interrow_id":"V1-I027","row_ids":["V1-R027","V1-R028"],"interrow_cover":"bare_soil","area_m2":197.75}},{"type":"Feature","geometry":{"type":"Polygon","coordinates":[[[629591.72,5220268.77],[629643.51,5220195.86],[629645.85,5220196.58],[629593.8,5220269.48],[629591.72,5220268.77]]]},"properties":{"label":"interrow_area","vineyard_id":"V1","interrow_id":"V1-I028","row_ids":["V1-R028","V1-R029"],"interrow_cover":"unassessable","area_m2":197.9}},{"type":"Feature","geometry":{"type":"Polygon","coordinates":[[[629594.65,5220269.76],[629646.7,5220196.87],[629649.04,5220197.58],[629596.74,5220270.47],[629594.65,5220269.76]]]},"properties":{"label":"interrow_area","vineyard_id":"V1","interrow_id":"V1-I029","row_ids":["V1-R029","V1-R030"],"interrow_cover":"bare_soil","area_m2":198.05}},{"type":"Feature","geometry":{"type":"Polygon","coordinates":[[[629597.59,5220270.75],[629649.89,5220197.87],[629652.23,5220198.58],[629599.67,5220271.45],[629597.59,5220270.75]]]},"properties":{"label":"interrow_area","vineyard_id":"V1","interrow_id":"V1-I030","row_ids":["V1-R030","V1-R031"],"interrow_cover":"bare_soil","area_m2":198.21}},{"type":"Feature","geometry":{"type":"Polygon","coordinates":[[[629600.53,5220271.74],[629653.08,5220198.87],[629655.42,5220199.58],[629602.61,5220272.44],[629600.53,5220271.74]]]},"properties":{"label":"interrow_area","vineyard_id":"V1","interrow_id":"V1-I031","row_ids":["V1-R031","V1-R032"],"interrow_cover":"bare_soil","area_m2":198.36}},{"type":"Feature","geometry":{"type":"Polygon","coordinates":[[[629603.46,5220272.73],[629656.27,5220199.87],[629658.61,5220200.59],[629605.54,5220273.43],[629603.46,5220272.73]]]},"properties":{"label":"interrow_area","vineyard_id":"V1","interrow_id":"V1-I032","row_ids":["V1-R032","V1-R033"],"interrow_cover":"bare_soil","area_m2":198.51}},{"type":"Feature","geometry":{"type":"Polygon","coordinates":[[[629606.4,5220273.72],[629659.46,5220200.87],[629661.8,5220201.59],[629608.48,5220274.42],[629606.4,5220273.72]]]},"properties":{"label":"interrow_area","vineyard_id":"V1","interrow_id":"V1-I033","row_ids":["V1-R033","V1-R034"],"interrow_cover":"bare_soil","area_m2":198.67}},{"type":"Feature","geometry":{"type":"Polygon","coordinates":[[[629609.33,5220274.71],[629662.65,5220201.88],[629664.99,5220202.59],[629611.41,5220275.41],[629609.33,5220274.71]]]},"properties":{"label":"interrow_area","vineyard_id":"V1","interrow_id":"V1-I034","row_ids":["V1-R034","V1-R035"],"interrow_cover":"bare_soil","area_m2":198.82}},{"type":"Feature","geometry":{"type":"Polygon","coordinates":[[[629612.27,5220275.7],[629665.84,5220202.88],[629668.18,5220203.59],[629614.35,5220276.4],[629612.27,5220275.7]]]},"properties":{"label":"interrow_area","vineyard_id":"V1","interrow_id":"V1-I035","row_ids":["V1-R035","V1-R036"],"interrow_cover":"bare_soil","area_m2":198.97}},{"type":"Feature","geometry":{"type":"Polygon","coordinates":[[[629615.2,5220276.69],[629669.03,5220203.88],[629671.37,5220204.6],[629617.28,5220277.39],[629615.2,5220276.69]]]},"properties":{"label":"interrow_area","vineyard_id":"V1","interrow_id":"V1-I036","row_ids":["V1-R036","V1-R037"],"interrow_cover":"bare_soil","area_m2":199.12}},{"type":"Feature","geometry":{"type":"Polygon","coordinates":[[[629618.14,5220277.68],[629672.22,5220204.88],[629674.56,5220205.6],[629620.22,5220278.38],[629618.14,5220277.68]]]},"properties":{"label":"interrow_area","vineyard_id":"V1","interrow_id":"V1-I037","row_ids":["V1-R037","V1-R038"],"interrow_cover":"bare_soil","area_m2":199.28}},{"type":"Feature","geometry":{"type":"Polygon","coordinates":[[[629621.07,5220278.67],[629675.42,5220205.89],[629677.75,5220206.6],[629623.15,5220279.37],[629621.07,5220278.67]]]},"properties":{"label":"interrow_area","vineyard_id":"V1","interrow_id":"V1-I038","row_ids":["V1-R038","V1-R039"],"interrow_cover":"bare_soil","area_m2":199.43}},{"type":"Feature","geometry":{"type":"Polygon","coordinates":[[[629624.01,5220279.66],[629678.61,5220206.89],[629680.94,5220207.6],[629626.09,5220280.36],[629624.01,5220279.66]]]},"properties":{"label":"interrow_area","vineyard_id":"V1","interrow_id":"V1-I039","row_ids":["V1-R039","V1-R040"],"interrow_cover":"bare_soil","area_m2":199.58}},{"type":"Feature","geometry":{"type":"Polygon","coordinates":[[[629626.94,5220280.65],[629681.8,5220207.89],[629684.14,5220208.6],[629629.02,5220281.35],[629626.94,5220280.65]]]},"properties":{"label":"interrow_area","vineyard_id":"V1","interrow_id":"V1-I040","row_ids":["V1-R040","V1-R041"],"interrow_cover":"mixed","area_m2":199.73}},{"type":"Feature","geometry":{"type":"Polygon","coordinates":[[[629629.88,5220281.64],[629684.99,5220208.89],[629687.33,5220209.61],[629631.96,5220282.34],[629629.88,5220281.64]]]},"properties":{"label":"interrow_area","vineyard_id":"V1","interrow_id":"V1-I041","row_ids":["V1-R041","V1-R042"],"interrow_cover":"bare_soil","area_m2":199.89}},{"type":"Feature","geometry":{"type":"Polygon","coordinates":[[[629632.81,5220282.63],[629688.18,5220209.89],[629690.52,5220210.61],[629634.89,5220283.33],[629632.81,5220282.63]]]},"properties":{"label":"interrow_area","vineyard_id":"V1","interrow_id":"V1-I042","row_ids":["V1-R042","V1-R043"],"interrow_cover":"bare_soil","area_m2":200.04}},{"type":"Feature","geometry":{"type":"Polygon","coordinates":[[[629635.75,5220283.62],[629691.37,5220210.9],[629693.71,5220211.61],[629637.83,5220284.32],[629635.75,5220283.62]]]},"properties":{"label":"interrow_area","vineyard_id":"V1","interrow_id":"V1-I043","row_ids":["V1-R043","V1-R044"],"interrow_cover":"vegetation","area_m2":200.19}},{"type":"Feature","geometry":{"type":"Polygon","coordinates":[[[629638.68,5220284.6],[629694.56,5220211.9],[629696.9,5220212.61],[629640.76,5220285.31],[629638.68,5220284.6]]]},"properties":{"label":"interrow_area","vineyard_id":"V1","interrow_id":"V1-I044","row_ids":["V1-R044","V1-R045"],"interrow_cover":"mixed","area_m2":200.35}},{"type":"Feature","geometry":{"type":"Polygon","coordinates":[[[629563.93,5220156.03],[629631.64,5220084.66],[629633.63,5220085.29],[629566.15,5220156.74],[629563.93,5220156.03]]]},"properties":{"label":"interrow_area","vineyard_id":"V2","interrow_id":"V2-I001","row_ids":["V2-R001","V2-R002"],"interrow_cover":"bare_soil","area_m2":195.89}},{"type":"Feature","geometry":{"type":"Polygon","coordinates":[[[629567,5220157.02],[629634.48,5220085.57],[629636.47,5220086.21],[629569.22,5220157.74],[629567,5220157.02]]]},"properties":{"label":"interrow_area","vineyard_id":"V2","interrow_id":"V2-I002","row_ids":["V2-R002","V2-R003"],"interrow_cover":"mixed","area_m2":195.9}},{"type":"Feature","geometry":{"type":"Polygon","coordinates":[[[629570.08,5220158.01],[629637.33,5220086.49],[629639.32,5220087.12],[629572.29,5220158.73],[629570.08,5220158.01]]]},"properties":{"label":"interrow_area","vineyard_id":"V2","interrow_id":"V2-I003","row_ids":["V2-R003","V2-R004"],"interrow_cover":"bare_soil","area_m2":195.91}},{"type":"Feature","geometry":{"type":"Polygon","coordinates":[[[629573.15,5220159.01],[629640.17,5220087.4],[629642.16,5220088.04],[629575.36,5220159.72],[629573.15,5220159.01]]]},"properties":{"label":"interrow_area","vineyard_id":"V2","interrow_id":"V2-I004","row_ids":["V2-R004","V2-R005"],"interrow_cover":"vegetation","area_m2":195.93}},{"type":"Feature","geometry":{"type":"Polygon","coordinates":[[[629576.22,5220160],[629643.02,5220088.32],[629645.01,5220088.95],[629578.44,5220160.72],[629576.22,5220160]]]},"properties":{"label":"interrow_area","vineyard_id":"V2","interrow_id":"V2-I005","row_ids":["V2-R005","V2-R006"],"interrow_cover":"bare_soil","area_m2":195.94}},{"type":"Feature","geometry":{"type":"Polygon","coordinates":[[[629579.29,5220160.99],[629645.86,5220089.23],[629647.85,5220089.87],[629581.51,5220161.71],[629579.29,5220160.99]]]},"properties":{"label":"interrow_area","vineyard_id":"V2","interrow_id":"V2-I006","row_ids":["V2-R006","V2-R007"],"interrow_cover":"mixed","area_m2":195.95}},{"type":"Feature","geometry":{"type":"Polygon","coordinates":[[[629582.36,5220161.99],[629648.71,5220090.14],[629650.7,5220090.78],[629584.58,5220162.7],[629582.36,5220161.99]]]},"properties":{"label":"interrow_area","vineyard_id":"V2","interrow_id":"V2-I007","row_ids":["V2-R007","V2-R008"],"interrow_cover":"bare_soil","area_m2":195.96}},{"type":"Feature","geometry":{"type":"Polygon","coordinates":[[[629585.44,5220162.98],[629651.55,5220091.06],[629653.54,5220091.7],[629587.65,5220163.7],[629585.44,5220162.98]]]},"properties":{"label":"interrow_area","vineyard_id":"V2","interrow_id":"V2-I008","row_ids":["V2-R008","V2-R009"],"interrow_cover":"bare_soil","area_m2":195.98}},{"type":"Feature","geometry":{"type":"Polygon","coordinates":[[[629588.51,5220163.98],[629654.4,5220091.97],[629656.39,5220092.61],[629590.73,5220164.69],[629588.51,5220163.98]]]},"properties":{"label":"interrow_area","vineyard_id":"V2","interrow_id":"V2-I009","row_ids":["V2-R009","V2-R010"],"interrow_cover":"bare_soil","area_m2":195.99}},{"type":"Feature","geometry":{"type":"Polygon","coordinates":[[[629591.58,5220164.97],[629657.24,5220092.89],[629659.23,5220093.52],[629593.8,5220165.69],[629591.58,5220164.97]]]},"properties":{"label":"interrow_area","vineyard_id":"V2","interrow_id":"V2-I010","row_ids":["V2-R010","V2-R011"],"interrow_cover":"bare_soil","area_m2":196}},{"type":"Feature","geometry":{"type":"Polygon","coordinates":[[[629594.65,5220165.96],[629660.09,5220093.8],[629662.08,5220094.44],[629596.87,5220166.68],[629594.65,5220165.96]]]},"properties":{"label":"interrow_area","vineyard_id":"V2","interrow_id":"V2-I011","row_ids":["V2-R011","V2-R012"],"interrow_cover":"bare_soil","area_m2":196.02}},{"type":"Feature","geometry":{"type":"Polygon","coordinates":[[[629597.73,5220166.96],[629662.93,5220094.72],[629664.92,5220095.35],[629599.94,5220167.67],[629597.73,5220166.96]]]},"properties":{"label":"interrow_area","vineyard_id":"V2","interrow_id":"V2-I012","row_ids":["V2-R012","V2-R013"],"interrow_cover":"mixed","area_m2":196.03}},{"type":"Feature","geometry":{"type":"Polygon","coordinates":[[[629600.8,5220167.95],[629665.78,5220095.63],[629667.77,5220096.27],[629603.01,5220168.67],[629600.8,5220167.95]]]},"properties":{"label":"interrow_area","vineyard_id":"V2","interrow_id":"V2-I013","row_ids":["V2-R013","V2-R014"],"interrow_cover":"vegetation","area_m2":196.04}},{"type":"Feature","geometry":{"type":"Polygon","coordinates":[[[629603.87,5220168.94],[629668.62,5220096.54],[629670.61,5220097.18],[629606.09,5220169.66],[629603.87,5220168.94]]]},"properties":{"label":"interrow_area","vineyard_id":"V2","interrow_id":"V2-I014","row_ids":["V2-R014","V2-R015"],"interrow_cover":"bare_soil","area_m2":196.06}},{"type":"Feature","geometry":{"type":"Polygon","coordinates":[[[629606.94,5220169.94],[629671.47,5220097.46],[629673.46,5220098.1],[629609.16,5220170.65],[629606.94,5220169.94]]]},"properties":{"label":"interrow_area","vineyard_id":"V2","interrow_id":"V2-I015","row_ids":["V2-R015","V2-R016"],"interrow_cover":"mixed","area_m2":196.07}},{"type":"Feature","geometry":{"type":"Polygon","coordinates":[[[629610.01,5220170.93],[629674.31,5220098.37],[629676.3,5220099.01],[629612.23,5220171.65],[629610.01,5220170.93]]]},"properties":{"label":"interrow_area","vineyard_id":"V2","interrow_id":"V2-I016","row_ids":["V2-R016","V2-R017"],"interrow_cover":"unassessable","area_m2":196.08}},{"type":"Feature","geometry":{"type":"Polygon","coordinates":[[[629613.09,5220171.93],[629677.16,5220099.29],[629679.15,5220099.93],[629615.3,5220172.64],[629613.09,5220171.93]]]},"properties":{"label":"interrow_area","vineyard_id":"V2","interrow_id":"V2-I017","row_ids":["V2-R017","V2-R018"],"interrow_cover":"bare_soil","area_m2":196.09}},{"type":"Feature","geometry":{"type":"Polygon","coordinates":[[[629616.16,5220172.92],[629680,5220100.2],[629681.99,5220100.84],[629618.37,5220173.64],[629616.16,5220172.92]]]},"properties":{"label":"interrow_area","vineyard_id":"V2","interrow_id":"V2-I018","row_ids":["V2-R018","V2-R019"],"interrow_cover":"unassessable","area_m2":196.11}},{"type":"Feature","geometry":{"type":"Polygon","coordinates":[[[629619.23,5220173.91],[629682.85,5220101.12],[629684.84,5220101.75],[629621.45,5220174.63],[629619.23,5220173.91]]]},"properties":{"label":"interrow_area","vineyard_id":"V2","interrow_id":"V2-I019","row_ids":["V2-R019","V2-R020"],"interrow_cover":"bare_soil","area_m2":196.12}},{"type":"Feature","geometry":{"type":"Polygon","coordinates":[[[629622.3,5220174.91],[629685.69,5220102.03],[629687.68,5220102.67],[629624.52,5220175.62],[629622.3,5220174.91]]]},"properties":{"label":"interrow_area","vineyard_id":"V2","interrow_id":"V2-I020","row_ids":["V2-R020","V2-R021"],"interrow_cover":"bare_soil","area_m2":196.14}},{"type":"Feature","geometry":{"type":"Polygon","coordinates":[[[629625.37,5220175.9],[629688.54,5220102.95],[629690.53,5220103.58],[629627.59,5220176.62],[629625.37,5220175.9]]]},"properties":{"label":"interrow_area","vineyard_id":"V2","interrow_id":"V2-I021","row_ids":["V2-R021","V2-R022"],"interrow_cover":"bare_soil","area_m2":196.15}},{"type":"Feature","geometry":{"type":"Polygon","coordinates":[[[629628.45,5220176.89],[629691.39,5220103.86],[629693.37,5220104.5],[629630.66,5220177.61],[629628.45,5220176.89]]]},"properties":{"label":"interrow_area","vineyard_id":"V2","interrow_id":"V2-I022","row_ids":["V2-R022","V2-R023"],"interrow_cover":"bare_soil","area_m2":196.16}},{"type":"Feature","geometry":{"type":"Polygon","coordinates":[[[629631.52,5220177.89],[629694.23,5220104.77],[629696.22,5220105.41],[629633.73,5220178.6],[629631.52,5220177.89]]]},"properties":{"label":"interrow_area","vineyard_id":"V2","interrow_id":"V2-I023","row_ids":["V2-R023","V2-R024"],"interrow_cover":"bare_soil","area_m2":196.18}},{"type":"Feature","geometry":{"type":"Polygon","coordinates":[[[629634.59,5220178.88],[629697.08,5220105.69],[629699.07,5220106.33],[629636.8,5220179.6],[629634.59,5220178.88]]]},"properties":{"label":"interrow_area","vineyard_id":"V2","interrow_id":"V2-I024","row_ids":["V2-R024","V2-R025"],"interrow_cover":"bare_soil","area_m2":196.19}},{"type":"Feature","geometry":{"type":"Polygon","coordinates":[[[629637.66,5220179.88],[629699.92,5220106.6],[629701.91,5220107.24],[629639.88,5220180.59],[629637.66,5220179.88]]]},"properties":{"label":"interrow_area","vineyard_id":"V2","interrow_id":"V2-I025","row_ids":["V2-R025","V2-R026"],"interrow_cover":"bare_soil","area_m2":196.2}},{"type":"Feature","geometry":{"type":"Polygon","coordinates":[[[629640.73,5220180.87],[629702.77,5220107.52],[629704.76,5220108.15],[629642.95,5220181.59],[629640.73,5220180.87]]]},"properties":{"label":"interrow_area","vineyard_id":"V2","interrow_id":"V2-I026","row_ids":["V2-R026","V2-R027"],"interrow_cover":"mixed","area_m2":196.22}},{"type":"Feature","geometry":{"type":"Polygon","coordinates":[[[629643.8,5220181.86],[629705.61,5220108.43],[629707.6,5220109.07],[629646.02,5220182.58],[629643.8,5220181.86]]]},"properties":{"label":"interrow_area","vineyard_id":"V2","interrow_id":"V2-I027","row_ids":["V2-R027","V2-R028"],"interrow_cover":"mixed","area_m2":196.23}},{"type":"Feature","geometry":{"type":"Polygon","coordinates":[[[629646.88,5220182.86],[629708.46,5220109.35],[629710.45,5220109.98],[629649.09,5220183.57],[629646.88,5220182.86]]]},"properties":{"label":"interrow_area","vineyard_id":"V2","interrow_id":"V2-I028","row_ids":["V2-R028","V2-R029"],"interrow_cover":"mixed","area_m2":196.25}},{"type":"Feature","geometry":{"type":"Polygon","coordinates":[[[629649.95,5220183.85],[629711.3,5220110.26],[629713.29,5220110.9],[629652.16,5220184.57],[629649.95,5220183.85]]]},"properties":{"label":"interrow_area","vineyard_id":"V2","interrow_id":"V2-I029","row_ids":["V2-R029","V2-R030"],"interrow_cover":"vegetation","area_m2":196.26}},{"type":"Feature","geometry":{"type":"Polygon","coordinates":[[[629653.02,5220184.84],[629714.15,5220111.17],[629716.14,5220111.81],[629655.24,5220185.56],[629653.02,5220184.84]]]},"properties":{"label":"interrow_area","vineyard_id":"V2","interrow_id":"V2-I030","row_ids":["V2-R030","V2-R031"],"interrow_cover":"bare_soil","area_m2":196.27}},{"type":"Feature","geometry":{"type":"Polygon","coordinates":[[[629656.09,5220185.84],[629717,5220112.09],[629718.99,5220112.73],[629658.31,5220186.56],[629656.09,5220185.84]]]},"properties":{"label":"interrow_area","vineyard_id":"V2","interrow_id":"V2-I031","row_ids":["V2-R031","V2-R032"],"interrow_cover":"bare_soil","area_m2":196.29}},{"type":"Feature","geometry":{"type":"Polygon","coordinates":[[[629659.16,5220186.83],[629719.84,5220113],[629721.83,5220113.64],[629661.38,5220187.55],[629659.16,5220186.83]]]},"properties":{"label":"interrow_area","vineyard_id":"V2","interrow_id":"V2-I032","row_ids":["V2-R032","V2-R033"],"interrow_cover":"bare_soil","area_m2":196.3}},{"type":"Feature","geometry":{"type":"Polygon","coordinates":[[[629662.23,5220187.83],[629722.69,5220113.92],[629724.68,5220114.55],[629664.45,5220188.54],[629662.23,5220187.83]]]},"properties":{"label":"interrow_area","vineyard_id":"V2","interrow_id":"V2-I033","row_ids":["V2-R033","V2-R034"],"interrow_cover":"unassessable","area_m2":196.32}},{"type":"Feature","geometry":{"type":"Polygon","coordinates":[[[629665.31,5220188.82],[629725.53,5220114.83],[629727.52,5220115.47],[629667.52,5220189.54],[629665.31,5220188.82]]]},"properties":{"label":"interrow_area","vineyard_id":"V2","interrow_id":"V2-I034","row_ids":["V2-R034","V2-R035"],"interrow_cover":"bare_soil","area_m2":196.33}},{"type":"Feature","geometry":{"type":"Polygon","coordinates":[[[629668.38,5220189.81],[629728.38,5220115.75],[629730.37,5220116.38],[629670.59,5220190.53],[629668.38,5220189.81]]]},"properties":{"label":"interrow_area","vineyard_id":"V2","interrow_id":"V2-I035","row_ids":["V2-R035","V2-R036"],"interrow_cover":"bare_soil","area_m2":196.35}},{"type":"Feature","geometry":{"type":"Polygon","coordinates":[[[629671.45,5220190.81],[629731.22,5220116.66],[629733.21,5220117.3],[629673.66,5220191.52],[629671.45,5220190.81]]]},"properties":{"label":"interrow_area","vineyard_id":"V2","interrow_id":"V2-I036","row_ids":["V2-R036","V2-R037"],"interrow_cover":"bare_soil","area_m2":196.36}},{"type":"Feature","geometry":{"type":"Polygon","coordinates":[[[629674.52,5220191.8],[629734.07,5220117.57],[629736.06,5220118.21],[629676.74,5220192.52],[629674.52,5220191.8]]]},"properties":{"label":"interrow_area","vineyard_id":"V2","interrow_id":"V2-I037","row_ids":["V2-R037","V2-R038"],"interrow_cover":"bare_soil","area_m2":196.37}},{"type":"Feature","geometry":{"type":"Polygon","coordinates":[[[629677.59,5220192.8],[629736.92,5220118.49],[629738.91,5220119.12],[629679.81,5220193.51],[629677.59,5220192.8]]]},"properties":{"label":"interrow_area","vineyard_id":"V2","interrow_id":"V2-I038","row_ids":["V2-R038","V2-R039"],"interrow_cover":"bare_soil","area_m2":196.39}},{"type":"Feature","geometry":{"type":"Polygon","coordinates":[[[629680.66,5220193.79],[629739.76,5220119.4],[629741.75,5220120.04],[629682.88,5220194.51],[629680.66,5220193.79]]]},"properties":{"label":"interrow_area","vineyard_id":"V2","interrow_id":"V2-I039","row_ids":["V2-R039","V2-R040"],"interrow_cover":"bare_soil","area_m2":196.4}},{"type":"Feature","geometry":{"type":"Polygon","coordinates":[[[629683.74,5220194.78],[629742.61,5220120.32],[629744.6,5220120.95],[629685.95,5220195.5],[629683.74,5220194.78]]]},"properties":{"label":"interrow_area","vineyard_id":"V2","interrow_id":"V2-I040","row_ids":["V2-R040","V2-R041"],"interrow_cover":"bare_soil","area_m2":196.42}},{"type":"Feature","geometry":{"type":"Polygon","coordinates":[[[629686.81,5220195.78],[629745.45,5220121.23],[629747.44,5220121.87],[629689.02,5220196.49],[629686.81,5220195.78]]]},"properties":{"label":"interrow_area","vineyard_id":"V2","interrow_id":"V2-I041","row_ids":["V2-R041","V2-R042"],"interrow_cover":"bare_soil","area_m2":196.43}},{"type":"Feature","geometry":{"type":"Polygon","coordinates":[[[629689.88,5220196.77],[629748.3,5220122.14],[629750.29,5220122.78],[629692.09,5220197.49],[629689.88,5220196.77]]]},"properties":{"label":"interrow_area","vineyard_id":"V2","interrow_id":"V2-I042","row_ids":["V2-R042","V2-R043"],"interrow_cover":"bare_soil","area_m2":196.45}},{"type":"Feature","geometry":{"type":"Polygon","coordinates":[[[629692.95,5220197.76],[629751.15,5220123.06],[629753.14,5220123.7],[629695.16,5220198.48],[629692.95,5220197.76]]]},"properties":{"label":"interrow_area","vineyard_id":"V2","interrow_id":"V2-I043","row_ids":["V2-R043","V2-R044"],"interrow_cover":"bare_soil","area_m2":196.46}},{"type":"Feature","geometry":{"type":"Polygon","coordinates":[[[629696.02,5220198.76],[629753.99,5220123.97],[629755.98,5220124.61],[629698.24,5220199.48],[629696.02,5220198.76]]]},"properties":{"label":"interrow_area","vineyard_id":"V2","interrow_id":"V2-I044","row_ids":["V2-R044","V2-R045"],"interrow_cover":"bare_soil","area_m2":196.48}},{"type":"Feature","geometry":{"type":"Polygon","coordinates":[[[629699.09,5220199.75],[629756.84,5220124.89],[629758.83,5220125.52],[629701.31,5220200.47],[629699.09,5220199.75]]]},"properties":{"label":"interrow_area","vineyard_id":"V2","interrow_id":"V2-I045","row_ids":["V2-R045","V2-R046"],"interrow_cover":"bare_soil","area_m2":196.49}},{"type":"Feature","geometry":{"type":"Polygon","coordinates":[[[629702.16,5220200.75],[629759.68,5220125.8],[629761.67,5220126.44],[629704.38,5220201.46],[629702.16,5220200.75]]]},"properties":{"label":"interrow_area","vineyard_id":"V2","interrow_id":"V2-I046","row_ids":["V2-R046","V2-R047"],"interrow_cover":"bare_soil","area_m2":196.51}},{"type":"Feature","geometry":{"type":"Polygon","coordinates":[[[629701.71,5220093.42],[629738.68,5220014.67],[629741.12,5220015.31],[629703.74,5220094.13],[629701.71,5220093.42]]]},"properties":{"label":"interrow_area","vineyard_id":"V3","interrow_id":"V3-I001","row_ids":["V3-R001","V3-R002"],"interrow_cover":"bare_soil","area_m2":200.75}},{"type":"Feature","geometry":{"type":"Polygon","coordinates":[[[629704.59,5220094.43],[629741.96,5220015.61],[629744.4,5220016.25],[629706.61,5220095.14],[629704.59,5220094.43]]]},"properties":{"label":"interrow_area","vineyard_id":"V3","interrow_id":"V3-I002","row_ids":["V3-R002","V3-R003"],"interrow_cover":"bare_soil","area_m2":201.18}},{"type":"Feature","geometry":{"type":"Polygon","coordinates":[[[629707.46,5220095.43],[629745.25,5220016.55],[629747.68,5220017.19],[629709.48,5220096.14],[629707.46,5220095.43]]]},"properties":{"label":"interrow_area","vineyard_id":"V3","interrow_id":"V3-I003","row_ids":["V3-R003","V3-R004"],"interrow_cover":"vegetation","area_m2":201.6}},{"type":"Feature","geometry":{"type":"Polygon","coordinates":[[[629710.33,5220096.44],[629748.53,5220017.49],[629750.97,5220018.13],[629712.36,5220097.15],[629710.33,5220096.44]]]},"properties":{"label":"interrow_area","vineyard_id":"V3","interrow_id":"V3-I004","row_ids":["V3-R004","V3-R005"],"interrow_cover":"bare_soil","area_m2":202.03}},{"type":"Feature","geometry":{"type":"Polygon","coordinates":[[[629713.21,5220097.45],[629751.82,5220018.43],[629754.25,5220019.07],[629715.23,5220098.16],[629713.21,5220097.45]]]},"properties":{"label":"interrow_area","vineyard_id":"V3","interrow_id":"V3-I005","row_ids":["V3-R005","V3-R006"],"interrow_cover":"mixed","area_m2":202.45}},{"type":"Feature","geometry":{"type":"Polygon","coordinates":[[[629716.08,5220098.45],[629755.1,5220019.37],[629757.54,5220020.01],[629718.1,5220099.16],[629716.08,5220098.45]]]},"properties":{"label":"interrow_area","vineyard_id":"V3","interrow_id":"V3-I006","row_ids":["V3-R006","V3-R007"],"interrow_cover":"bare_soil","area_m2":202.88}},{"type":"Feature","geometry":{"type":"Polygon","coordinates":[[[629718.95,5220099.46],[629758.39,5220020.31],[629760.82,5220020.95],[629720.97,5220100.17],[629718.95,5220099.46]]]},"properties":{"label":"interrow_area","vineyard_id":"V3","interrow_id":"V3-I007","row_ids":["V3-R007","V3-R008"],"interrow_cover":"bare_soil","area_m2":203.31}},{"type":"Feature","geometry":{"type":"Polygon","coordinates":[[[629721.82,5220100.46],[629761.67,5220021.25],[629764.11,5220021.89],[629723.85,5220101.17],[629721.82,5220100.46]]]},"properties":{"label":"interrow_area","vineyard_id":"V3","interrow_id":"V3-I008","row_ids":["V3-R008","V3-R009"],"interrow_cover":"bare_soil","area_m2":203.73}},{"type":"Feature","geometry":{"type":"Polygon","coordinates":[[[629724.7,5220101.47],[629764.96,5220022.19],[629767.39,5220022.83],[629726.72,5220102.18],[629724.7,5220101.47]]]},"properties":{"label":"interrow_area","vineyard_id":"V3","interrow_id":"V3-I009","row_ids":["V3-R009","V3-R010"],"interrow_cover":"bare_soil","area_m2":204.16}},{"type":"Feature","geometry":{"type":"Polygon","coordinates":[[[629727.57,5220102.48],[629768.24,5220023.13],[629770.68,5220023.77],[629729.59,5220103.18],[629727.57,5220102.48]]]},"properties":{"label":"interrow_area","vineyard_id":"V3","interrow_id":"V3-I010","row_ids":["V3-R010","V3-R011"],"interrow_cover":"bare_soil","area_m2":204.58}},{"type":"Feature","geometry":{"type":"Polygon","coordinates":[[[629730.44,5220103.48],[629771.53,5220024.07],[629773.96,5220024.71],[629732.46,5220104.19],[629730.44,5220103.48]]]},"properties":{"label":"interrow_area","vineyard_id":"V3","interrow_id":"V3-I011","row_ids":["V3-R011","V3-R012"],"interrow_cover":"vegetation","area_m2":205.01}},{"type":"Feature","geometry":{"type":"Polygon","coordinates":[[[629733.31,5220104.49],[629774.81,5220025],[629777.25,5220025.65],[629735.34,5220105.2],[629733.31,5220104.49]]]},"properties":{"label":"interrow_area","vineyard_id":"V3","interrow_id":"V3-I012","row_ids":["V3-R012","V3-R013"],"interrow_cover":"mixed","area_m2":205.44}}]}