{"type":"FeatureCollection","crs":{"type":"name","properties":{"name":"urn:ogc:def:crs:EPSG::32635"}},"features":[{"type":"Feature","geometry":{"type":"LineString","coordinates":[[629501.8,5220252],[629513.49,5220242.41],[629516.43,5220243.4],[629519.37,5220244.39],[629522.3,5220245.38],[629525.24,5220246.37],[629528.17,5220247.36],[629531.11,5220248.35],[629534.05,5220249.34],[629544.67,5220232.74],[629580.87,5220176.18],[629586.54,5220163.34],[629606.71,5220141.36],[629586.54,5220163.34],[629589.62,5220164.33],[629592.69,5220165.33],[629595.76,5220166.32],[629598.83,5220167.31],[629601.91,5220168.31],[629604.98,5220169.3],[629608.05,5220170.3],[629611.12,5220171.29],[629614.19,5220172.28],[629617.27,5220173.28],[629620.34,5220174.27],[629623.41,5220175.26],[629626.48,5220176.26],[629629.55,5220177.25],[629632.63,5220178.25],[629635.7,5220179.24],[629638.77,5220180.23],[629641.84,5220181.23],[629644.91,5220182.22],[629647.98,5220183.22],[629651.06,5220184.21],[629654.13,5220185.2],[629657.2,5220186.2],[629660.27,5220187.19],[629695.82,5220143.83],[629720.84,5220113.32],[629725.71,5220101.82],[629745.04,5220063.93],[629725.71,5220101.82],[629728.58,5220102.83],[629731.45,5220103.84],[629734.33,5220104.84],[629735.06,5220117.89],[629701.79,5220159.47],[629699.23,5220162.67],[629675.63,5220192.16],[629678.7,5220193.15],[629681.77,5220194.15],[629684.84,5220195.14],[629687.91,5220196.14],[629690.99,5220197.13],[629701.01,5220184.3],[629690.99,5220197.13],[629694.06,5220198.12],[629697.13,5220199.12],[629700.2,5220200.11],[629695.73,5220212.26],[629663.1,5220254.61],[629653.86,5220266.6],[629639.72,5220284.96],[629636.79,5220283.97],[629633.85,5220282.98],[629630.92,5220281.99],[629627.98,5220281],[629625.05,5220280.01],[629622.11,5220279.02],[629619.18,5220278.03],[629616.24,5220277.04],[629613.31,5220276.05],[629610.37,5220275.06],[629607.44,5220274.07],[629621.74,5220254.48],[629607.44,5220274.07],[629604.5,5220273.08],[629601.57,5220272.09],[629598.63,5220271.1],[629595.7,5220270.11],[629592.76,5220269.12],[629589.83,5220268.14],[629586.89,5220267.15],[629583.95,5220266.16],[629581.02,5220265.17],[629578.08,5220264.18],[629575.15,5220263.19],[629572.21,5220262.2],[629569.28,5220261.21],[629566.34,5220260.22],[629563.41,5220259.23],[629560.47,5220258.24],[629557.53,5220257.25],[629554.6,5220256.26],[629551.66,5220255.27],[629548.73,5220254.28],[629545.79,5220253.3],[629542.85,5220252.31],[629539.92,5220251.32],[629536.98,5220250.33],[629534.05,5220249.34],[629531.11,5220248.35],[629528.17,5220247.36],[629525.24,5220246.37],[629522.3,5220245.38],[629519.37,5220244.39],[629516.43,5220243.4],[629513.49,5220242.41],[629501.8,5220252]]},"properties":{"purpose":"waste_collection","length_m":945.2,"baseline_length_m":9724.93,"walking_speed_kmh":4,"stop_ids":["W-005","W-003","W-007","W-004","W-008","W-006","W-001","W-002"],"stop_distances_m":[56.51,167.53,330.91,425.39,543.39,617.68,725.19,806.69],"start":[629501.8,5220252]}}]}