{"type":"FeatureCollection","crs":{"type":"name","properties":{"name":"urn:ogc:def:crs:EPSG::32635"}},"features":[{"type":"Feature","geometry":{"type":"LineString","coordinates":[[629501.8,5220252],[629513.49,5220242.41],[629516.43,5220243.4],[629519.37,5220244.39],[629522.3,5220245.38],[629525.24,5220246.37],[629528.17,5220247.36],[629531.11,5220248.35],[629534.05,5220249.34],[629544.67,5220232.74],[629534.05,5220249.34],[629536.98,5220250.33],[629539.92,5220251.32],[629542.85,5220252.31],[629545.79,5220253.3],[629548.73,5220254.28],[629576.87,5220211.51],[629596.82,5220181.19],[629601.91,5220168.31],[629598.83,5220167.31],[629595.76,5220166.32],[629592.69,5220165.33],[629589.62,5220164.33],[629586.54,5220163.34],[629583.47,5220162.35],[629602.23,5220141.99],[629583.47,5220162.35],[629586.54,5220163.34],[629606.71,5220141.36],[629586.54,5220163.34],[629589.62,5220164.33],[629592.69,5220165.33],[629595.76,5220166.32],[629639.28,5220118.22],[629661.08,5220094.12],[629663.93,5220095.03],[629666.77,5220095.95],[629669.62,5220096.86],[629672.46,5220097.78],[629675.31,5220098.69],[629678.15,5220099.61],[629681,5220100.52],[629683.84,5220101.44],[629686.69,5220102.35],[629689.53,5220103.26],[629692.38,5220104.18],[629702.72,5220093.78],[629705.6,5220094.78],[629723.6,5220057.02],[629705.6,5220094.78],[629708.47,5220095.79],[629711.34,5220096.79],[629714.22,5220097.8],[629717.09,5220098.81],[629733.27,5220066.18],[629756.32,5220019.69],[629759.61,5220020.63],[629762.89,5220021.57],[629766.18,5220022.51],[629769.46,5220023.45],[629772.75,5220024.39],[629766.49,5220036.42],[629772.75,5220024.39],[629769.46,5220023.45],[629766.18,5220022.51],[629755.61,5220043.22],[629745.04,5220063.93],[629725.71,5220101.82],[629720.84,5220113.32],[629695.82,5220143.83],[629720.84,5220113.32],[629723.68,5220114.24],[629717.96,5220121.25],[629723.68,5220114.24],[629726.53,5220115.15],[629729.37,5220116.06],[629732.22,5220116.98],[629735.06,5220117.89],[629737.91,5220118.81],[629706.34,5220158.45],[629678.7,5220193.15],[629675.63,5220192.16],[629699.23,5220162.67],[629701.79,5220159.47],[629699.23,5220162.67],[629675.63,5220192.16],[629672.56,5220191.17],[629669.49,5220190.17],[629666.41,5220189.18],[629663.34,5220188.18],[629660.27,5220187.19],[629657.2,5220186.2],[629654.13,5220185.2],[629651.06,5220184.21],[629647.98,5220183.22],[629644.91,5220182.22],[629654.18,5220171.19],[629644.91,5220182.22],[629641.84,5220181.23],[629638.77,5220180.23],[629635.7,5220179.24],[629632.63,5220178.25],[629635.76,5220174.58],[629632.63,5220178.25],[629635.7,5220179.24],[629638.77,5220180.23],[629635.1,5220193.21],[629611.26,5220227.21],[629635.1,5220193.21],[629638.3,5220194.22],[629613.94,5220228.76],[629638.3,5220194.22],[629641.49,5220195.22],[629644.68,5220196.22],[629647.87,5220197.22],[629651.06,5220198.23],[629654.25,5220199.23],[629657.44,5220200.23],[629660.63,5220201.23],[629663.82,5220202.23],[629667.01,5220203.24],[629670.2,5220204.24],[629644.18,5220239.34],[629670.2,5220204.24],[629673.39,5220205.24],[629676.58,5220206.24],[629668.92,5220216.48],[629676.58,5220206.24],[629681.77,5220194.15],[629702.62,5220167.84],[629681.77,5220194.15],[629684.84,5220195.14],[629687.91,5220196.14],[629690.99,5220197.13],[629701.01,5220184.3],[629707.57,5220175.89],[629701.01,5220184.3],[629690.99,5220197.13],[629694.06,5220198.12],[629697.13,5220199.12],[629699.66,5220195.84],[629697.13,5220199.12],[629692.54,5220211.25],[629661.67,5220251.51],[629636.79,5220283.97],[629639.72,5220284.96],[629653.86,5220266.6],[629663.1,5220254.61],[629653.86,5220266.6],[629639.72,5220284.96],[629636.79,5220283.97],[629633.85,5220282.98],[629630.92,5220281.99],[629627.98,5220281],[629625.05,5220280.01],[629622.11,5220279.02],[629619.18,5220278.03],[629633.59,5220258.69],[629619.18,5220278.03],[629616.24,5220277.04],[629613.31,5220276.05],[629610.37,5220275.06],[629607.44,5220274.07],[629621.74,5220254.48],[629607.44,5220274.07],[629604.5,5220273.08],[629601.57,5220272.09],[629598.63,5220271.1],[629595.7,5220270.11],[629592.76,5220269.12],[629608.16,5220247.5],[629592.76,5220269.12],[629589.83,5220268.14],[629586.89,5220267.15],[629583.95,5220266.16],[629581.02,5220265.17],[629578.08,5220264.18],[629598.36,5220234.96],[629578.08,5220264.18],[629575.15,5220263.19],[629572.21,5220262.2],[629569.28,5220261.21],[629566.34,5220260.22],[629563.41,5220259.23],[629560.47,5220258.24],[629557.53,5220257.25],[629554.6,5220256.26],[629551.66,5220255.27],[629548.73,5220254.28],[629545.79,5220253.3],[629542.85,5220252.31],[629539.92,5220251.32],[629536.98,5220250.33],[629534.05,5220249.34],[629531.11,5220248.35],[629528.17,5220247.36],[629525.24,5220246.37],[629522.3,5220245.38],[629519.37,5220244.39],[629516.43,5220243.4],[629513.49,5220242.41],[629501.8,5220252]]},"properties":{"purpose":"inspection","length_m":2261.88,"baseline_length_m":9724.93,"walking_speed_kmh":4,"stop_ids":["W-005","IP-001","IP-011","W-003","IP-012","IP-021","IP-022","IP-024","IP-023","W-004","W-007","IP-015","IP-017","IP-016","W-008","IP-014","IP-013","IP-003","IP-004","IP-006","IP-008","IP-018","IP-019","W-006","IP-020","IP-009","IP-010","W-001","IP-007","W-002","IP-005","IP-002"],"stop_distances_m":[56.51,142.92,240.11,300.84,405.22,530.14,620.57,703.1,746.74,770,864.48,915.98,990.66,1076.03,1080.13,1168.68,1200.83,1267.12,1354.26,1473.67,1536.84,1596.35,1666.55,1677.23,1704.11,1771.96,1854.26,1869.39,1938.36,1999.13,2065.43,2143.04],"start":[629501.8,5220252]}}]}