{"type":"FeatureCollection","crs":{"type":"name","properties":{"name":"urn:ogc:def:crs:EPSG::32635"}},"features":[{"type":"Feature","geometry":{"type":"LineString","coordinates":[[629512.02,5220241.92],[629556.95,5220168.66]]},"properties":{"label":"row","vineyard_id":"V1","row_id":"V1-R001","row_structure":"regular","length_m":85.94}},{"type":"Feature","geometry":{"type":"LineString","coordinates":[[629514.96,5220242.91],[629560.14,5220169.66]]},"properties":{"label":"row","vineyard_id":"V1","row_id":"V1-R002","row_structure":"regular","length_m":86.06}},{"type":"Feature","geometry":{"type":"LineString","coordinates":[[629517.9,5220243.9],[629563.33,5220170.66]]},"properties":{"label":"row","vineyard_id":"V1","row_id":"V1-R003","row_structure":"regular","length_m":86.18}},{"type":"Feature","geometry":{"type":"LineString","coordinates":[[629520.83,5220244.89],[629566.52,5220171.66]]},"properties":{"label":"row","vineyard_id":"V1","row_id":"V1-R004","row_structure":"regular","length_m":86.3}},{"type":"Feature","geometry":{"type":"LineString","coordinates":[[629523.77,5220245.88],[629569.71,5220172.67]]},"properties":{"label":"row","vineyard_id":"V1","row_id":"V1-R005","row_structure":"regular","length_m":86.43}},{"type":"Feature","geometry":{"type":"LineString","coordinates":[[629526.71,5220246.86],[629572.9,5220173.67]]},"properties":{"label":"row","vineyard_id":"V1","row_id":"V1-R006","row_structure":"regular","length_m":86.55}},{"type":"Feature","geometry":{"type":"LineString","coordinates":[[629529.64,5220247.85],[629576.09,5220174.67]]},"properties":{"label":"row","vineyard_id":"V1","row_id":"V1-R007","row_structure":"regular","length_m":86.68}},{"type":"Feature","geometry":{"type":"LineString","coordinates":[[629532.58,5220248.84],[629579.28,5220175.67]]},"properties":{"label":"row","vineyard_id":"V1","row_id":"V1-R008","row_structure":"regular","length_m":86.8}},{"type":"Feature","geometry":{"type":"LineString","coordinates":[[629535.51,5220249.83],[629582.47,5220176.68]]},"properties":{"label":"row","vineyard_id":"V1","row_id":"V1-R009","row_structure":"regular","length_m":86.93}},{"type":"Feature","geometry":{"type":"LineString","coordinates":[[629538.45,5220250.82],[629585.66,5220177.68]]},"properties":{"label":"row","vineyard_id":"V1","row_id":"V1-R010","row_structure":"regular","length_m":87.05}},{"type":"Feature","geometry":{"type":"LineString","coordinates":[[629541.39,5220251.81],[629588.85,5220178.68]]},"properties":{"label":"row","vineyard_id":"V1","row_id":"V1-R011","row_structure":"regular","length_m":87.18}},{"type":"Feature","geometry":{"type":"LineString","coordinates":[[629544.32,5220252.8],[629592.04,5220179.68]]},"properties":{"label":"row","vineyard_id":"V1","row_id":"V1-R012","row_structure":"regular","length_m":87.31}},{"type":"Feature","geometry":{"type":"LineString","coordinates":[[629547.26,5220253.79],[629595.23,5220180.69]]},"properties":{"label":"row","vineyard_id":"V1","row_id":"V1-R013","row_structure":"regular","length_m":87.44}},{"type":"Feature","geometry":{"type":"LineString","coordinates":[[629550.19,5220254.78],[629598.42,5220181.69]]},"properties":{"label":"row","vineyard_id":"V1","row_id":"V1-R014","row_structure":"regular","length_m":87.57}},{"type":"Feature","geometry":{"type":"LineString","coordinates":[[629553.13,5220255.77],[629601.61,5220182.69]]},"properties":{"label":"row","vineyard_id":"V1","row_id":"V1-R015","row_structure":"regular","length_m":87.7}},{"type":"Feature","geometry":{"type":"LineString","coordinates":[[629556.07,5220256.76],[629604.8,5220183.69]]},"properties":{"label":"row","vineyard_id":"V1","row_id":"V1-R016","row_structure":"regular","length_m":87.83}},{"type":"Feature","geometry":{"type":"LineString","coordinates":[[629559,5220257.75],[629607.99,5220184.69]]},"properties":{"label":"row","vineyard_id":"V1","row_id":"V1-R017","row_structure":"regular","length_m":87.96}},{"type":"Feature","geometry":{"type":"LineString","coordinates":[[629561.94,5220258.74],[629611.18,5220185.7]]},"properties":{"label":"row","vineyard_id":"V1","row_id":"V1-R018","row_structure":"regular","length_m":88.09}},{"type":"Feature","geometry":{"type":"LineString","coordinates":[[629564.87,5220259.73],[629614.37,5220186.7]]},"properties":{"label":"row","vineyard_id":"V1","row_id":"V1-R019","row_structure":"unassessable","length_m":88.22}},{"type":"Feature","geometry":{"type":"LineString","coordinates":[[629567.81,5220260.72],[629617.56,5220187.7]]},"properties":{"label":"row","vineyard_id":"V1","row_id":"V1-R020","row_structure":"regular","length_m":88.35}},{"type":"Feature","geometry":{"type":"LineString","coordinates":[[629570.74,5220261.7],[629620.75,5220188.7]]},"properties":{"label":"row","vineyard_id":"V1","row_id":"V1-R021","row_structure":"regular","length_m":88.48}},{"type":"Feature","geometry":{"type":"LineString","coordinates":[[629573.68,5220262.69],[629623.94,5220189.71]]},"properties":{"label":"row","vineyard_id":"V1","row_id":"V1-R022","row_structure":"regular","length_m":88.62}},{"type":"Feature","geometry":{"type":"LineString","coordinates":[[629576.62,5220263.68],[629627.13,5220190.71]]},"properties":{"label":"row","vineyard_id":"V1","row_id":"V1-R023","row_structure":"disrupted","length_m":88.75}},{"type":"Feature","geometry":{"type":"LineString","coordinates":[[629579.55,5220264.67],[629630.32,5220191.71]]},"properties":{"label":"row","vineyard_id":"V1","row_id":"V1-R024","row_structure":"regular","length_m":88.89}},{"type":"Feature","geometry":{"type":"LineString","coordinates":[[629582.49,5220265.66],[629633.51,5220192.71]]},"properties":{"label":"row","vineyard_id":"V1","row_id":"V1-R025","row_structure":"disrupted","length_m":89.02}},{"type":"Feature","geometry":{"type":"LineString","coordinates":[[629585.42,5220266.65],[629636.7,5220193.72]]},"properties":{"label":"row","vineyard_id":"V1","row_id":"V1-R026","row_structure":"regular","length_m":89.16}},{"type":"Feature","geometry":{"type":"LineString","coordinates":[[629588.36,5220267.64],[629639.89,5220194.72]]},"properties":{"label":"row","vineyard_id":"V1","row_id":"V1-R027","row_structure":"regular","length_m":89.29}},{"type":"Feature","geometry":{"type":"LineString","coordinates":[[629591.29,5220268.63],[629643.08,5220195.72]]},"properties":{"label":"row","vineyard_id":"V1","row_id":"V1-R028","row_structure":"regular","length_m":89.43}},{"type":"Feature","geometry":{"type":"LineString","coordinates":[[629594.23,5220269.62],[629646.27,5220196.72]]},"properties":{"label":"row","vineyard_id":"V1","row_id":"V1-R029","row_structure":"regular","length_m":89.57}},{"type":"Feature","geometry":{"type":"LineString","coordinates":[[629597.16,5220270.61],[629649.46,5220197.72]]},"properties":{"label":"row","vineyard_id":"V1","row_id":"V1-R030","row_structure":"regular","length_m":89.71}},{"type":"Feature","geometry":{"type":"LineString","coordinates":[[629600.1,5220271.6],[629652.65,5220198.73]]},"properties":{"label":"row","vineyard_id":"V1","row_id":"V1-R031","row_structure":"regular","length_m":89.85}},{"type":"Feature","geometry":{"type":"LineString","coordinates":[[629603.03,5220272.59],[629655.84,5220199.73]]},"properties":{"label":"row","vineyard_id":"V1","row_id":"V1-R032","row_structure":"regular","length_m":89.99}},{"type":"Feature","geometry":{"type":"LineString","coordinates":[[629605.97,5220273.58],[629659.03,5220200.73]]},"properties":{"label":"row","vineyard_id":"V1","row_id":"V1-R033","row_structure":"regular","length_m":90.13}},{"type":"Feature","geometry":{"type":"LineString","coordinates":[[629608.9,5220274.57],[629662.23,5220201.73]]},"properties":{"label":"row","vineyard_id":"V1","row_id":"V1-R034","row_structure":"regular","length_m":90.27}},{"type":"Feature","geometry":{"type":"LineString","coordinates":[[629611.84,5220275.56],[629665.42,5220202.74]]},"properties":{"label":"row","vineyard_id":"V1","row_id":"V1-R035","row_structure":"regular","length_m":90.41}},{"type":"Feature","geometry":{"type":"LineString","coordinates":[[629614.78,5220276.55],[629668.61,5220203.74]]},"properties":{"label":"row","vineyard_id":"V1","row_id":"V1-R036","row_structure":"disrupted","length_m":90.55}},{"type":"Feature","geometry":{"type":"LineString","coordinates":[[629617.71,5220277.53],[629671.8,5220204.74]]},"properties":{"label":"row","vineyard_id":"V1","row_id":"V1-R037","row_structure":"disrupted","length_m":90.69}},{"type":"Feature","geometry":{"type":"LineString","coordinates":[[629620.65,5220278.52],[629674.99,5220205.74]]},"properties":{"label":"row","vineyard_id":"V1","row_id":"V1-R038","row_structure":"disrupted","length_m":90.83}},{"type":"Feature","geometry":{"type":"LineString","coordinates":[[629623.58,5220279.51],[629678.18,5220206.74]]},"properties":{"label":"row","vineyard_id":"V1","row_id":"V1-R039","row_structure":"unassessable","length_m":90.98}},{"type":"Feature","geometry":{"type":"LineString","coordinates":[[629626.52,5220280.5],[629681.37,5220207.75]]},"properties":{"label":"row","vineyard_id":"V1","row_id":"V1-R040","row_structure":"regular","length_m":91.12}},{"type":"Feature","geometry":{"type":"LineString","coordinates":[[629629.45,5220281.49],[629684.56,5220208.75]]},"properties":{"label":"row","vineyard_id":"V1","row_id":"V1-R041","row_structure":"regular","length_m":91.26}},{"type":"Feature","geometry":{"type":"LineString","coordinates":[[629632.39,5220282.48],[629687.75,5220209.75]]},"properties":{"label":"row","vineyard_id":"V1","row_id":"V1-R042","row_structure":"regular","length_m":91.41}},{"type":"Feature","geometry":{"type":"LineString","coordinates":[[629635.32,5220283.47],[629690.94,5220210.75]]},"properties":{"label":"row","vineyard_id":"V1","row_id":"V1-R043","row_structure":"disrupted","length_m":91.55}},{"type":"Feature","geometry":{"type":"LineString","coordinates":[[629638.25,5220284.46],[629694.14,5220211.76]]},"properties":{"label":"row","vineyard_id":"V1","row_id":"V1-R044","row_structure":"regular","length_m":91.7}},{"type":"Feature","geometry":{"type":"LineString","coordinates":[[629641.19,5220285.45],[629697.33,5220212.76]]},"properties":{"label":"row","vineyard_id":"V1","row_id":"V1-R045","row_structure":"disrupted","length_m":91.85}},{"type":"Feature","geometry":{"type":"LineString","coordinates":[[629563.5,5220155.89],[629631.21,5220084.52]]},"properties":{"label":"row","vineyard_id":"V2","row_id":"V2-R001","row_structure":"regular","length_m":98.37}},{"type":"Feature","geometry":{"type":"LineString","coordinates":[[629566.57,5220156.88],[629634.05,5220085.43]]},"properties":{"label":"row","vineyard_id":"V2","row_id":"V2-R002","row_structure":"regular","length_m":98.28}},{"type":"Feature","geometry":{"type":"LineString","coordinates":[[629569.65,5220157.87],[629636.9,5220086.35]]},"properties":{"label":"row","vineyard_id":"V2","row_id":"V2-R003","row_structure":"regular","length_m":98.18}},{"type":"Feature","geometry":{"type":"LineString","coordinates":[[629572.72,5220158.87],[629639.74,5220087.26]]},"properties":{"label":"row","vineyard_id":"V2","row_id":"V2-R004","row_structure":"regular","length_m":98.08}},{"type":"Feature","geometry":{"type":"LineString","coordinates":[[629575.79,5220159.86],[629642.59,5220088.18]]},"properties":{"label":"row","vineyard_id":"V2","row_id":"V2-R005","row_structure":"regular","length_m":97.98}},{"type":"Feature","geometry":{"type":"LineString","coordinates":[[629578.86,5220160.86],[629645.43,5220089.09]]},"properties":{"label":"row","vineyard_id":"V2","row_id":"V2-R006","row_structure":"regular","length_m":97.89}},{"type":"Feature","geometry":{"type":"LineString","coordinates":[[629581.94,5220161.85],[629648.28,5220090.01]]},"properties":{"label":"row","vineyard_id":"V2","row_id":"V2-R007","row_structure":"regular","length_m":97.79}},{"type":"Feature","geometry":{"type":"LineString","coordinates":[[629585.01,5220162.84],[629651.12,5220090.92]]},"properties":{"label":"row","vineyard_id":"V2","row_id":"V2-R008","row_structure":"disrupted","length_m":97.69}},{"type":"Feature","geometry":{"type":"LineString","coordinates":[[629588.08,5220163.84],[629653.97,5220091.83]]},"properties":{"label":"row","vineyard_id":"V2","row_id":"V2-R009","row_structure":"regular","length_m":97.6}},{"type":"Feature","geometry":{"type":"LineString","coordinates":[[629591.15,5220164.83],[629656.81,5220092.75]]},"properties":{"label":"row","vineyard_id":"V2","row_id":"V2-R010","row_structure":"regular","length_m":97.5}},{"type":"Feature","geometry":{"type":"LineString","coordinates":[[629594.23,5220165.82],[629659.66,5220093.66]]},"properties":{"label":"row","vineyard_id":"V2","row_id":"V2-R011","row_structure":"regular","length_m":97.41}},{"type":"Feature","geometry":{"type":"LineString","coordinates":[[629597.3,5220166.82],[629662.5,5220094.58]]},"properties":{"label":"row","vineyard_id":"V2","row_id":"V2-R012","row_structure":"disrupted","length_m":97.32}},{"type":"Feature","geometry":{"type":"LineString","coordinates":[[629600.37,5220167.81],[629665.35,5220095.49]]},"properties":{"label":"row","vineyard_id":"V2","row_id":"V2-R013","row_structure":"regular","length_m":97.22}},{"type":"Feature","geometry":{"type":"LineString","coordinates":[[629603.44,5220168.81],[629668.2,5220096.41]]},"properties":{"label":"row","vineyard_id":"V2","row_id":"V2-R014","row_structure":"regular","length_m":97.13}},{"type":"Feature","geometry":{"type":"LineString","coordinates":[[629606.51,5220169.8],[629671.04,5220097.32]]},"properties":{"label":"row","vineyard_id":"V2","row_id":"V2-R015","row_structure":"regular","length_m":97.04}},{"type":"Feature","geometry":{"type":"LineString","coordinates":[[629609.59,5220170.79],[629673.89,5220098.23]]},"properties":{"label":"row","vineyard_id":"V2","row_id":"V2-R016","row_structure":"regular","length_m":96.95}},{"type":"Feature","geometry":{"type":"LineString","coordinates":[[629612.66,5220171.79],[629676.73,5220099.15]]},"properties":{"label":"row","vineyard_id":"V2","row_id":"V2-R017","row_structure":"regular","length_m":96.86}},{"type":"Feature","geometry":{"type":"LineString","coordinates":[[629615.73,5220172.78],[629679.58,5220100.06]]},"properties":{"label":"row","vineyard_id":"V2","row_id":"V2-R018","row_structure":"regular","length_m":96.77}},{"type":"Feature","geometry":{"type":"LineString","coordinates":[[629618.8,5220173.77],[629682.42,5220100.98]]},"properties":{"label":"row","vineyard_id":"V2","row_id":"V2-R019","row_structure":"regular","length_m":96.68}},{"type":"Feature","geometry":{"type":"LineString","coordinates":[[629621.87,5220174.77],[629685.27,5220101.89]]},"properties":{"label":"row","vineyard_id":"V2","row_id":"V2-R020","row_structure":"regular","length_m":96.59}},{"type":"Feature","geometry":{"type":"LineString","coordinates":[[629624.95,5220175.76],[629688.11,5220102.81]]},"properties":{"label":"row","vineyard_id":"V2","row_id":"V2-R021","row_structure":"regular","length_m":96.5}},{"type":"Feature","geometry":{"type":"LineString","coordinates":[[629628.02,5220176.76],[629690.96,5220103.72]]},"properties":{"label":"row","vineyard_id":"V2","row_id":"V2-R022","row_structure":"regular","length_m":96.41}},{"type":"Feature","geometry":{"type":"LineString","coordinates":[[629631.09,5220177.75],[629693.8,5220104.64]]},"properties":{"label":"row","vineyard_id":"V2","row_id":"V2-R023","row_structure":"regular","length_m":96.33}},{"type":"Feature","geometry":{"type":"LineString","coordinates":[[629634.16,5220178.74],[629696.65,5220105.55]]},"properties":{"label":"row","vineyard_id":"V2","row_id":"V2-R024","row_structure":"disrupted","length_m":96.24}},{"type":"Feature","geometry":{"type":"LineString","coordinates":[[629637.23,5220179.74],[629699.49,5220106.46]]},"properties":{"label":"row","vineyard_id":"V2","row_id":"V2-R025","row_structure":"regular","length_m":96.15}},{"type":"Feature","geometry":{"type":"LineString","coordinates":[[629640.3,5220180.73],[629702.34,5220107.38]]},"properties":{"label":"row","vineyard_id":"V2","row_id":"V2-R026","row_structure":"regular","length_m":96.07}},{"type":"Feature","geometry":{"type":"LineString","coordinates":[[629643.38,5220181.72],[629705.19,5220108.29]]},"properties":{"label":"row","vineyard_id":"V2","row_id":"V2-R027","row_structure":"regular","length_m":95.98}},{"type":"Feature","geometry":{"type":"LineString","coordinates":[[629646.45,5220182.72],[629708.03,5220109.21]]},"properties":{"label":"row","vineyard_id":"V2","row_id":"V2-R028","row_structure":"disrupted","length_m":95.9}},{"type":"Feature","geometry":{"type":"LineString","coordinates":[[629649.52,5220183.71],[629710.88,5220110.12]]},"properties":{"label":"row","vineyard_id":"V2","row_id":"V2-R029","row_structure":"regular","length_m":95.81}},{"type":"Feature","geometry":{"type":"LineString","coordinates":[[629652.59,5220184.71],[629713.72,5220111.04]]},"properties":{"label":"row","vineyard_id":"V2","row_id":"V2-R030","row_structure":"regular","length_m":95.73}},{"type":"Feature","geometry":{"type":"LineString","coordinates":[[629655.66,5220185.7],[629716.57,5220111.95]]},"properties":{"label":"row","vineyard_id":"V2","row_id":"V2-R031","row_structure":"regular","length_m":95.65}},{"type":"Feature","geometry":{"type":"LineString","coordinates":[[629658.73,5220186.69],[629719.41,5220112.86]]},"properties":{"label":"row","vineyard_id":"V2","row_id":"V2-R032","row_structure":"regular","length_m":95.57}},{"type":"Feature","geometry":{"type":"LineString","coordinates":[[629661.81,5220187.69],[629722.26,5220113.78]]},"properties":{"label":"row","vineyard_id":"V2","row_id":"V2-R033","row_structure":"regular","length_m":95.48}},{"type":"Feature","geometry":{"type":"LineString","coordinates":[[629664.88,5220188.68],[629725.1,5220114.69]]},"properties":{"label":"row","vineyard_id":"V2","row_id":"V2-R034","row_structure":"disrupted","length_m":95.4}},{"type":"Feature","geometry":{"type":"LineString","coordinates":[[629667.95,5220189.68],[629727.95,5220115.61]]},"properties":{"label":"row","vineyard_id":"V2","row_id":"V2-R035","row_structure":"regular","length_m":95.32}},{"type":"Feature","geometry":{"type":"LineString","coordinates":[[629671.02,5220190.67],[629730.8,5220116.52]]},"properties":{"label":"row","vineyard_id":"V2","row_id":"V2-R036","row_structure":"regular","length_m":95.24}},{"type":"Feature","geometry":{"type":"LineString","coordinates":[[629674.09,5220191.66],[629733.64,5220117.44]]},"properties":{"label":"row","vineyard_id":"V2","row_id":"V2-R037","row_structure":"regular","length_m":95.16}},{"type":"Feature","geometry":{"type":"LineString","coordinates":[[629677.16,5220192.66],[629736.49,5220118.35]]},"properties":{"label":"row","vineyard_id":"V2","row_id":"V2-R038","row_structure":"disrupted","length_m":95.08}},{"type":"Feature","geometry":{"type":"LineString","coordinates":[[629680.24,5220193.65],[629739.33,5220119.26]]},"properties":{"label":"row","vineyard_id":"V2","row_id":"V2-R039","row_structure":"disrupted","length_m":95.01}},{"type":"Feature","geometry":{"type":"LineString","coordinates":[[629683.31,5220194.64],[629742.18,5220120.18]]},"properties":{"label":"row","vineyard_id":"V2","row_id":"V2-R040","row_structure":"disrupted","length_m":94.93}},{"type":"Feature","geometry":{"type":"LineString","coordinates":[[629686.38,5220195.64],[629745.03,5220121.09]]},"properties":{"label":"row","vineyard_id":"V2","row_id":"V2-R041","row_structure":"regular","length_m":94.85}},{"type":"Feature","geometry":{"type":"LineString","coordinates":[[629689.45,5220196.63],[629747.87,5220122.01]]},"properties":{"label":"row","vineyard_id":"V2","row_id":"V2-R042","row_structure":"regular","length_m":94.77}},{"type":"Feature","geometry":{"type":"LineString","coordinates":[[629692.52,5220197.63],[629750.72,5220122.92]]},"properties":{"label":"row","vineyard_id":"V2","row_id":"V2-R043","row_structure":"disrupted","length_m":94.7}},{"type":"Feature","geometry":{"type":"LineString","coordinates":[[629695.59,5220198.62],[629753.56,5220123.83]]},"properties":{"label":"row","vineyard_id":"V2","row_id":"V2-R044","row_structure":"regular","length_m":94.62}},{"type":"Feature","geometry":{"type":"LineString","coordinates":[[629698.66,5220199.61],[629756.41,5220124.75]]},"properties":{"label":"row","vineyard_id":"V2","row_id":"V2-R045","row_structure":"disrupted","length_m":94.55}},{"type":"Feature","geometry":{"type":"LineString","coordinates":[[629701.74,5220200.61],[629759.26,5220125.66]]},"properties":{"label":"row","vineyard_id":"V2","row_id":"V2-R046","row_structure":"regular","length_m":94.47}},{"type":"Feature","geometry":{"type":"LineString","coordinates":[[629704.81,5220201.6],[629762.1,5220126.58]]},"properties":{"label":"row","vineyard_id":"V2","row_id":"V2-R047","row_structure":"regular","length_m":94.4}},{"type":"Feature","geometry":{"type":"LineString","coordinates":[[629701.29,5220093.27],[629738.26,5220014.52]]},"properties":{"label":"row","vineyard_id":"V3","row_id":"V3-R001","row_structure":"regular","length_m":87}},{"type":"Feature","geometry":{"type":"LineString","coordinates":[[629704.16,5220094.28],[629741.54,5220015.46]]},"properties":{"label":"row","vineyard_id":"V3","row_id":"V3-R002","row_structure":"disrupted","length_m":87.23}},{"type":"Feature","geometry":{"type":"LineString","coordinates":[[629707.03,5220095.29],[629744.82,5220016.4]]},"properties":{"label":"row","vineyard_id":"V3","row_id":"V3-R003","row_structure":"regular","length_m":87.47}},{"type":"Feature","geometry":{"type":"LineString","coordinates":[[629709.91,5220096.29],[629748.11,5220017.34]]},"properties":{"label":"row","vineyard_id":"V3","row_id":"V3-R004","row_structure":"regular","length_m":87.71}},{"type":"Feature","geometry":{"type":"LineString","coordinates":[[629712.78,5220097.3],[629751.39,5220018.28]]},"properties":{"label":"row","vineyard_id":"V3","row_id":"V3-R005","row_structure":"regular","length_m":87.95}},{"type":"Feature","geometry":{"type":"LineString","coordinates":[[629715.65,5220098.3],[629754.68,5220019.22]]},"properties":{"label":"row","vineyard_id":"V3","row_id":"V3-R006","row_structure":"disrupted","length_m":88.19}},{"type":"Feature","geometry":{"type":"LineString","coordinates":[[629718.53,5220099.31],[629757.96,5220020.16]]},"properties":{"label":"row","vineyard_id":"V3","row_id":"V3-R007","row_structure":"regular","length_m":88.43}},{"type":"Feature","geometry":{"type":"LineString","coordinates":[[629721.4,5220100.32],[629761.25,5220021.1]]},"properties":{"label":"row","vineyard_id":"V3","row_id":"V3-R008","row_structure":"regular","length_m":88.68}},{"type":"Feature","geometry":{"type":"LineString","coordinates":[[629724.27,5220101.32],[629764.53,5220022.04]]},"properties":{"label":"row","vineyard_id":"V3","row_id":"V3-R009","row_structure":"disrupted","length_m":88.92}},{"type":"Feature","geometry":{"type":"LineString","coordinates":[[629727.14,5220102.33],[629767.82,5220022.98]]},"properties":{"label":"row","vineyard_id":"V3","row_id":"V3-R010","row_structure":"regular","length_m":89.17}},{"type":"Feature","geometry":{"type":"LineString","coordinates":[[629730.02,5220103.33],[629771.1,5220023.92]]},"properties":{"label":"row","vineyard_id":"V3","row_id":"V3-R011","row_structure":"disrupted","length_m":89.42}},{"type":"Feature","geometry":{"type":"LineString","coordinates":[[629732.89,5220104.34],[629774.39,5220024.86]]},"properties":{"label":"row","vineyard_id":"V3","row_id":"V3-R012","row_structure":"regular","length_m":89.67}},{"type":"Feature","geometry":{"type":"LineString","coordinates":[[629735.76,5220105.35],[629777.67,5220025.8]]},"properties":{"label":"row","vineyard_id":"V3","row_id":"V3-R013","row_structure":"regular","length_m":89.92}}]}