{"type":"FeatureCollection","crs":{"type":"name","properties":{"name":"urn:ogc:def:crs:EPSG::32635"}},"features":[{"type":"Feature","geometry":{"type":"Polygon","coordinates":[[[629653.41,5220266.24],[629654.31,5220266.24],[629654.31,5220266.96],[629653.41,5220266.96],[629653.41,5220266.24]]]},"properties":{"label":"waste","waste_id":"W-001","vineyard_id":"V1","reachable":true}},{"type":"Feature","geometry":{"type":"Polygon","coordinates":[[[629621.17,5220254.02],[629622.32,5220254.02],[629622.32,5220254.94],[629621.17,5220254.94],[629621.17,5220254.02]]]},"properties":{"label":"waste","waste_id":"W-002","vineyard_id":"V1","reachable":true}},{"type":"Feature","geometry":{"type":"Polygon","coordinates":[[[629606.03,5220140.81],[629607.39,5220140.81],[629607.39,5220141.9],[629606.03,5220141.9],[629606.03,5220140.81]]]},"properties":{"label":"waste","waste_id":"W-003","vineyard_id":"V2","reachable":true}},{"type":"Feature","geometry":{"type":"Polygon","coordinates":[[[629744.59,5220063.57],[629745.49,5220063.57],[629745.49,5220064.29],[629744.59,5220064.29],[629744.59,5220063.57]]]},"properties":{"label":"waste","waste_id":"W-004","vineyard_id":"V3","reachable":true}},{"type":"Feature","geometry":{"type":"Polygon","coordinates":[[[629544,5220232.2],[629545.34,5220232.2],[629545.34,5220233.28],[629544,5220233.28],[629544,5220232.2]]]},"properties":{"label":"waste","waste_id":"W-005","vineyard_id":"V1","reachable":true}},{"type":"Feature","geometry":{"type":"Polygon","coordinates":[[[629700.33,5220183.76],[629701.68,5220183.76],[629701.68,5220184.84],[629700.33,5220184.84],[629700.33,5220183.76]]]},"properties":{"label":"waste","waste_id":"W-006","vineyard_id":"V2","reachable":true}},{"type":"Feature","geometry":{"type":"Polygon","coordinates":[[[629695.38,5220143.48],[629696.26,5220143.48],[629696.26,5220144.18],[629695.38,5220144.18],[629695.38,5220143.48]]]},"properties":{"label":"waste","waste_id":"W-007","vineyard_id":"V2","reachable":true}},{"type":"Feature","geometry":{"type":"Polygon","coordinates":[[[629701.13,5220158.94],[629702.45,5220158.94],[629702.45,5220160],[629701.13,5220160],[629701.13,5220158.94]]]},"properties":{"label":"waste","waste_id":"W-008","vineyard_id":"V2","reachable":true}},{"type":"Feature","geometry":{"type":"Polygon","coordinates":[[[629456.46,5220273.03],[629458.26,5220273.03],[629458.26,5220274.47],[629456.46,5220274.47],[629456.46,5220273.03]]]},"properties":{"label":"waste","waste_id":"W-009","vineyard_id":null,"reachable":false}}]}