{"type": "FeatureCollection", "crs": {"type": "name", "properties": {"name": "urn:ogc:def:crs:EPSG::32635"}}, "features": [{"type": "Feature", "geometry": {"type": "Point", "coordinates": [629690.7091968749, 5220227.016824942]}, "properties": {"point_id": "I001", "vineyard_id": "V14", "row_id": "V14-R54", "reason": "row_gap", "gap_length_m": 47.31}}, {"type": "Feature", "geometry": {"type": "Point", "coordinates": [629680.8364103523, 5220072.132946218]}, "properties": {"point_id": "I002", "vineyard_id": "V14", "row_id": "V14-R18", "reason": "row_gap", "gap_length_m": 21.36}}, {"type": "Feature", "geometry": {"type": "Point", "coordinates": [629245.7678217337, 5220899.412500001]}, "properties": {"point_id": "I003", "vineyard_id": "V03", "row_id": "V03-R01", "reason": "row_gap", "gap_length_m": 20.35}}, {"type": "Feature", "geometry": {"type": "Point", "coordinates": [629257.4368092144, 5220791.453007516]}, "properties": {"point_id": "I004", "vineyard_id": "V05", "row_id": "V05-R01", "reason": "row_gap", "gap_length_m": 19.86}}, {"type": "Feature", "geometry": {"type": "Point", "coordinates": [629644.5849129163, 5220119.033370562]}, "properties": {"point_id": "I005", "vineyard_id": "V14", "row_id": "V14-R18", "reason": "row_gap", "gap_length_m": 19.58}}, {"type": "Feature", "geometry": {"type": "Point", "coordinates": [629564.157154836, 5220183.075382842]}, "properties": {"point_id": "I006", "vineyard_id": "V14", "row_id": "V14-R09", "reason": "row_gap", "gap_length_m": 17.78}}, {"type": "Feature", "geometry": {"type": "Point", "coordinates": [629836.3775838163, 5219951.447878625]}, "properties": {"point_id": "I007", "vineyard_id": "V18", "row_id": "V18-R01", "reason": "row_gap", "gap_length_m": 17.61}}, {"type": "Feature", "geometry": {"type": "Point", "coordinates": [629687.9247153071, 5220069.38715032]}, "properties": {"point_id": "I008", "vineyard_id": "V14", "row_id": "V14-R19", "reason": "row_gap", "gap_length_m": 17.36}}, {"type": "Feature", "geometry": {"type": "Point", "coordinates": [630286.1008691968, 5219392.777962511]}, "properties": {"point_id": "I009", "vineyard_id": "V44", "row_id": "V44-R28", "reason": "row_gap", "gap_length_m": 15.21}}, {"type": "Feature", "geometry": {"type": "Point", "coordinates": [629218.9329067867, 5220854.5465037925]}, "properties": {"point_id": "I010", "vineyard_id": "V01", "row_id": "V01-R48", "reason": "row_gap", "gap_length_m": 14.72}}, {"type": "Feature", "geometry": {"type": "Point", "coordinates": [629239.1862978948, 5220881.816747626]}, "properties": {"point_id": "I011", "vineyard_id": "V02", "row_id": "V02-R01", "reason": "row_gap", "gap_length_m": 14.19}}, {"type": "Feature", "geometry": {"type": "Point", "coordinates": [629216.4830263426, 5220853.600250116]}, "properties": {"point_id": "I012", "vineyard_id": "V01", "row_id": "V01-R47", "reason": "row_gap", "gap_length_m": 13.94}}, {"type": "Feature", "geometry": {"type": "Point", "coordinates": [630155.8950575783, 5219272.464623046]}, "properties": {"point_id": "I013", "vineyard_id": "V51", "row_id": "V51-R11", "reason": "row_gap", "gap_length_m": 13.87}}, {"type": "Feature", "geometry": {"type": "Point", "coordinates": [629192.114433871, 5220846.405545844]}, "properties": {"point_id": "I014", "vineyard_id": "V01", "row_id": "V01-R37", "reason": "row_gap", "gap_length_m": 13.84}}, {"type": "Feature", "geometry": {"type": "Point", "coordinates": [629139.9749920435, 5220838.8990714885]}, "properties": {"point_id": "I015", "vineyard_id": "V01", "row_id": "V01-R16", "reason": "row_gap", "gap_length_m": 13.54}}, {"type": "Feature", "geometry": {"type": "Point", "coordinates": [629140.2582632013, 5220741.100555265]}, "properties": {"point_id": "I016", "vineyard_id": "V04", "row_id": "V04-R42", "reason": "row_gap", "gap_length_m": 13.43}}, {"type": "Feature", "geometry": {"type": "Point", "coordinates": [629211.5006831064, 5220479.08709555]}, "properties": {"point_id": "I017", "vineyard_id": "V12", "row_id": "V12-R07", "reason": "row_gap", "gap_length_m": 13.27}}, {"type": "Feature", "geometry": {"type": "Point", "coordinates": [629891.3875000003, 5219605.30882167]}, "properties": {"point_id": "I018", "vineyard_id": "V31", "row_id": "V31-R02", "reason": "row_gap", "gap_length_m": 13.11}}, {"type": "Feature", "geometry": {"type": "Point", "coordinates": [629638.14519942, 5220133.4320161855]}, "properties": {"point_id": "I019", "vineyard_id": "V14", "row_id": "V14-R19", "reason": "row_gap", "gap_length_m": 12.69}}, {"type": "Feature", "geometry": {"type": "Point", "coordinates": [629262.8609910269, 5220784.153226931]}, "properties": {"point_id": "I020", "vineyard_id": "V06", "row_id": "V06-R01", "reason": "row_gap", "gap_length_m": 12.55}}, {"type": "Feature", "geometry": {"type": "Point", "coordinates": [629191.1326203506, 5220842.263485721]}, "properties": {"point_id": "I021", "vineyard_id": "V01", "row_id": "V01-R36", "reason": "row_gap", "gap_length_m": 12.51}}, {"type": "Feature", "geometry": {"type": "Point", "coordinates": [630315.5513210841, 5219425.560750107]}, "properties": {"point_id": "I022", "vineyard_id": "V41", "row_id": "V41-R02", "reason": "row_gap", "gap_length_m": 12.37}}, {"type": "Feature", "geometry": {"type": "Point", "coordinates": [629612.4750000001, 5220169.835564947]}, "properties": {"point_id": "I023", "vineyard_id": "V16", "row_id": "V16-R02", "reason": "row_gap", "gap_length_m": 11.86}}, {"type": "Feature", "geometry": {"type": "Point", "coordinates": [630141.469516037, 5219525.420833136]}, "properties": {"point_id": "I024", "vineyard_id": "V36", "row_id": "V36-R06", "reason": "row_gap", "gap_length_m": 11.79}}, {"type": "Feature", "geometry": {"type": "Point", "coordinates": [629691.0079331123, 5220058.798719927]}, "properties": {"point_id": "I025", "vineyard_id": "V14", "row_id": "V14-R18", "reason": "row_gap", "gap_length_m": 11.72}}, {"type": "Feature", "geometry": {"type": "Point", "coordinates": [629697.0187147197, 5220057.4654893335]}, "properties": {"point_id": "I026", "vineyard_id": "V14", "row_id": "V14-R19", "reason": "row_gap", "gap_length_m": 11.71}}, {"type": "Feature", "geometry": {"type": "Point", "coordinates": [629057.9633935437, 5220653.379399454]}, "properties": {"point_id": "I027", "vineyard_id": "V04", "row_id": "V04-R03", "reason": "row_gap", "gap_length_m": 11.68}}, {"type": "Feature", "geometry": {"type": "Point", "coordinates": [629174.6024229587, 5220835.255161685]}, "properties": {"point_id": "I028", "vineyard_id": "V01", "row_id": "V01-R29", "reason": "row_gap", "gap_length_m": 11.67}}, {"type": "Feature", "geometry": {"type": "Point", "coordinates": [630235.3550951534, 5219310.05965867]}, "properties": {"point_id": "I029", "vineyard_id": "V44", "row_id": "V44-R27", "reason": "row_gap", "gap_length_m": 11.6}}, {"type": "Feature", "geometry": {"type": "Point", "coordinates": [630295.5231971856, 5219293.156188015]}, "properties": {"point_id": "I030", "vineyard_id": "V53", "row_id": "V53-R09", "reason": "row_gap", "gap_length_m": 11.49}}, {"type": "Feature", "geometry": {"type": "Point", "coordinates": [629234.377331748, 5220890.267049345]}, "properties": {"point_id": "I031", "vineyard_id": "V01", "row_id": "V01-R60", "reason": "row_gap", "gap_length_m": 11.38}}, {"type": "Feature", "geometry": {"type": "Point", "coordinates": [629887.5633106352, 5219604.576371653]}, "properties": {"point_id": "I032", "vineyard_id": "V31", "row_id": "V31-R03", "reason": "row_gap", "gap_length_m": 11.37}}, {"type": "Feature", "geometry": {"type": "Point", "coordinates": [629717.8762468048, 5220136.030654718]}, "properties": {"point_id": "I033", "vineyard_id": "V14", "row_id": "V14-R42", "reason": "row_gap", "gap_length_m": 11.3}}, {"type": "Feature", "geometry": {"type": "Point", "coordinates": [629155.1764634271, 5220829.352380422]}, "properties": {"point_id": "I034", "vineyard_id": "V01", "row_id": "V01-R21", "reason": "row_gap", "gap_length_m": 11.26}}, {"type": "Feature", "geometry": {"type": "Point", "coordinates": [629134.974513412, 5220824.410798819]}, "properties": {"point_id": "I035", "vineyard_id": "V01", "row_id": "V01-R12", "reason": "row_gap", "gap_length_m": 11.12}}, {"type": "Feature", "geometry": {"type": "Point", "coordinates": [629174.1850736834, 5220539.033437298]}, "properties": {"point_id": "I036", "vineyard_id": "V10", "row_id": "V10-R06", "reason": "row_gap", "gap_length_m": 10.82}}, {"type": "Feature", "geometry": {"type": "Point", "coordinates": [629139.2171264898, 5220787.470855954]}, "properties": {"point_id": "I037", "vineyard_id": "V01", "row_id": "V01-R07", "reason": "row_gap", "gap_length_m": 10.78}}, {"type": "Feature", "geometry": {"type": "Point", "coordinates": [629213.8998878815, 5220493.5392869245]}, "properties": {"point_id": "I038", "vineyard_id": "V12", "row_id": "V12-R13", "reason": "row_gap", "gap_length_m": 10.73}}, {"type": "Feature", "geometry": {"type": "Point", "coordinates": [629162.0213047739, 5220845.7306237]}, "properties": {"point_id": "I039", "vineyard_id": "V01", "row_id": "V01-R26", "reason": "row_gap", "gap_length_m": 10.68}}, {"type": "Feature", "geometry": {"type": "Point", "coordinates": [629183.1461239018, 5220841.275848012]}, "properties": {"point_id": "I040", "vineyard_id": "V01", "row_id": "V01-R33", "reason": "row_gap", "gap_length_m": 10.53}}, {"type": "Feature", "geometry": {"type": "Point", "coordinates": [630130.792275813, 5219413.284838534]}, "properties": {"point_id": "I041", "vineyard_id": "V42", "row_id": "V42-R01", "reason": "row_gap", "gap_length_m": 10.5}}, {"type": "Feature", "geometry": {"type": "Point", "coordinates": [629181.6510175829, 5220838.275]}, "properties": {"point_id": "I042", "vineyard_id": "V01", "row_id": "V01-R32", "reason": "row_gap", "gap_length_m": 10.42}}, {"type": "Feature", "geometry": {"type": "Point", "coordinates": [630152.8073555721, 5219497.2776855845]}, "properties": {"point_id": "I043", "vineyard_id": "V39", "row_id": "V39-R02", "reason": "row_gap", "gap_length_m": 10.42}}, {"type": "Feature", "geometry": {"type": "Point", "coordinates": [630288.3295602687, 5219416.380840979]}, "properties": {"point_id": "I044", "vineyard_id": "V45", "row_id": "V45-R01", "reason": "row_gap", "gap_length_m": 10.31}}, {"type": "Feature", "geometry": {"type": "Point", "coordinates": [629243.2611240747, 5220829.357250917]}, "properties": {"point_id": "I045", "vineyard_id": "V01", "row_id": "V01-R53", "reason": "row_gap", "gap_length_m": 10.15}}, {"type": "Feature", "geometry": {"type": "Point", "coordinates": [629270.5201604749, 5220769.40127912]}, "properties": {"point_id": "I046", "vineyard_id": "V01", "row_id": "V01-R54", "reason": "row_gap", "gap_length_m": 10.1}}, {"type": "Feature", "geometry": {"type": "Point", "coordinates": [629060.2483148307, 5220655.056176906]}, "properties": {"point_id": "I047", "vineyard_id": "V04", "row_id": "V04-R04", "reason": "row_gap", "gap_length_m": 9.82}}, {"type": "Feature", "geometry": {"type": "Point", "coordinates": [630145.264581524, 5219508.627392159]}, "properties": {"point_id": "I048", "vineyard_id": "V36", "row_id": "V36-R02", "reason": "row_gap", "gap_length_m": 9.78}}, {"type": "Feature", "geometry": {"type": "Point", "coordinates": [629203.9455683252, 5220851.258310115]}, "properties": {"point_id": "I049", "vineyard_id": "V01", "row_id": "V01-R42", "reason": "row_gap", "gap_length_m": 9.72}}, {"type": "Feature", "geometry": {"type": "Point", "coordinates": [630123.2652869608, 5219403.590802002]}, "properties": {"point_id": "I050", "vineyard_id": "V42", "row_id": "V42-R01", "reason": "row_gap", "gap_length_m": 9.58}}, {"type": "Feature", "geometry": {"type": "Point", "coordinates": [629178.6311407342, 5220838.637144595]}, "properties": {"point_id": "I051", "vineyard_id": "V01", "row_id": "V01-R31", "reason": "row_gap", "gap_length_m": 9.54}}, {"type": "Feature", "geometry": {"type": "Point", "coordinates": [630367.2421477545, 5219348.4839507155]}, "properties": {"point_id": "I052", "vineyard_id": "V47", "row_id": "V47-R05", "reason": "row_gap", "gap_length_m": 9.47}}, {"type": "Feature", "geometry": {"type": "Point", "coordinates": [629235.0520117311, 5220894.977006552]}, "properties": {"point_id": "I053", "vineyard_id": "V01", "row_id": "V01-R61", "reason": "row_gap", "gap_length_m": 9.27}}, {"type": "Feature", "geometry": {"type": "Point", "coordinates": [630336.493477155, 5219357.828350586]}, "properties": {"point_id": "I054", "vineyard_id": "V44", "row_id": "V44-R02", "reason": "row_gap", "gap_length_m": 9.24}}, {"type": "Feature", "geometry": {"type": "Point", "coordinates": [629238.19279228, 5220940.433306209]}, "properties": {"point_id": "I055", "vineyard_id": "V01", "row_id": "V01-R69", "reason": "row_gap", "gap_length_m": 9.24}}, {"type": "Feature", "geometry": {"type": "Point", "coordinates": [629561.5706820963, 5220177.320385252]}, "properties": {"point_id": "I056", "vineyard_id": "V14", "row_id": "V14-R07", "reason": "row_gap", "gap_length_m": 9.17}}, {"type": "Feature", "geometry": {"type": "Point", "coordinates": [629221.022626005, 5220855.9805340795]}, "properties": {"point_id": "I057", "vineyard_id": "V01", "row_id": "V01-R49", "reason": "row_gap", "gap_length_m": 9.1}}, {"type": "Feature", "geometry": {"type": "Point", "coordinates": [629150.4846778677, 5220827.326772571]}, "properties": {"point_id": "I058", "vineyard_id": "V01", "row_id": "V01-R18", "reason": "row_gap", "gap_length_m": 9.07}}, {"type": "Feature", "geometry": {"type": "Point", "coordinates": [629129.9465684663, 5220803.366771336]}, "properties": {"point_id": "I059", "vineyard_id": "V01", "row_id": "V01-R06", "reason": "row_gap", "gap_length_m": 8.96}}, {"type": "Feature", "geometry": {"type": "Point", "coordinates": [629635.897222464, 5220130.422386068]}, "properties": {"point_id": "I060", "vineyard_id": "V14", "row_id": "V14-R18", "reason": "row_gap", "gap_length_m": 8.95}}, {"type": "Feature", "geometry": {"type": "Point", "coordinates": [629854.488676609, 5219936.876529026]}, "properties": {"point_id": "I061", "vineyard_id": "V18", "row_id": "V18-R03", "reason": "row_gap", "gap_length_m": 8.93}}, {"type": "Feature", "geometry": {"type": "Point", "coordinates": [629177.8201315602, 5220767.71910603]}, "properties": {"point_id": "I062", "vineyard_id": "V01", "row_id": "V01-R19", "reason": "row_gap", "gap_length_m": 8.93}}, {"type": "Feature", "geometry": {"type": "Point", "coordinates": [629616.984196593, 5220155.243639341]}, "properties": {"point_id": "I063", "vineyard_id": "V14", "row_id": "V14-R18", "reason": "row_gap", "gap_length_m": 8.91}}, {"type": "Feature", "geometry": {"type": "Point", "coordinates": [629188.165849282, 5220842.599125173]}, "properties": {"point_id": "I064", "vineyard_id": "V01", "row_id": "V01-R35", "reason": "row_gap", "gap_length_m": 8.88}}, {"type": "Feature", "geometry": {"type": "Point", "coordinates": [629691.5121298487, 5220207.4877836285]}, "properties": {"point_id": "I065", "vineyard_id": "V14", "row_id": "V14-R50", "reason": "row_gap", "gap_length_m": 8.74}}, {"type": "Feature", "geometry": {"type": "Point", "coordinates": [629161.9145792684, 5220832.588530718]}, "properties": {"point_id": "I066", "vineyard_id": "V01", "row_id": "V01-R24", "reason": "row_gap", "gap_length_m": 8.71}}, {"type": "Feature", "geometry": {"type": "Point", "coordinates": [629687.9598186284, 5220207.526213149]}, "properties": {"point_id": "I067", "vineyard_id": "V14", "row_id": "V14-R49", "reason": "row_gap", "gap_length_m": 8.68}}, {"type": "Feature", "geometry": {"type": "Point", "coordinates": [629215.5, 5220487.463141648]}, "properties": {"point_id": "I068", "vineyard_id": "V12", "row_id": "V12-R11", "reason": "row_gap", "gap_length_m": 8.66}}, {"type": "Feature", "geometry": {"type": "Point", "coordinates": [629857.9988975809, 5219937.462209475]}, "properties": {"point_id": "I069", "vineyard_id": "V18", "row_id": "V18-R04", "reason": "row_gap", "gap_length_m": 8.64}}, {"type": "Feature", "geometry": {"type": "Point", "coordinates": [629133.400951378, 5220821.677116982]}, "properties": {"point_id": "I070", "vineyard_id": "V01", "row_id": "V01-R11", "reason": "row_gap", "gap_length_m": 8.64}}, {"type": "Feature", "geometry": {"type": "Point", "coordinates": [629193.0699287131, 5220770.974065855]}, "properties": {"point_id": "I071", "vineyard_id": "V01", "row_id": "V01-R26", "reason": "row_gap", "gap_length_m": 8.6}}, {"type": "Feature", "geometry": {"type": "Point", "coordinates": [629921.8917728201, 5219845.355086959]}, "properties": {"point_id": "I072", "vineyard_id": "V18", "row_id": "V18-R02", "reason": "row_gap", "gap_length_m": 8.5}}, {"type": "Feature", "geometry": {"type": "Point", "coordinates": [629179.2365192402, 5220572.416847992]}, "properties": {"point_id": "I073", "vineyard_id": "V09", "row_id": "V09-R04", "reason": "row_gap", "gap_length_m": 8.48}}, {"type": "Feature", "geometry": {"type": "Point", "coordinates": [630004.8968286952, 5219615.39147633]}, "properties": {"point_id": "I074", "vineyard_id": "V30", "row_id": "V30-R03", "reason": "row_gap", "gap_length_m": 8.46}}, {"type": "Feature", "geometry": {"type": "Point", "coordinates": [630225.7028967049, 5219357.445769344]}, "properties": {"point_id": "I075", "vineyard_id": "V44", "row_id": "V44-R39", "reason": "row_gap", "gap_length_m": 8.44}}, {"type": "Feature", "geometry": {"type": "Point", "coordinates": [630088.929594257, 5219678.929302274]}, "properties": {"point_id": "I076", "vineyard_id": "V23", "row_id": "V23-R03", "reason": "row_gap", "gap_length_m": 8.39}}, {"type": "Feature", "geometry": {"type": "Point", "coordinates": [630138.879947749, 5219288.377928249]}, "properties": {"point_id": "I077", "vineyard_id": "V52", "row_id": "V52-R02", "reason": "row_gap", "gap_length_m": 8.35}}, {"type": "Feature", "geometry": {"type": "Point", "coordinates": [630177.1402259803, 5219238.413718282]}, "properties": {"point_id": "I078", "vineyard_id": "V51", "row_id": "V51-R04", "reason": "row_gap", "gap_length_m": 8.34}}, {"type": "Feature", "geometry": {"type": "Point", "coordinates": [630005.0855581563, 5219758.54064634]}, "properties": {"point_id": "I079", "vineyard_id": "V18", "row_id": "V18-R06", "reason": "row_gap", "gap_length_m": 8.31}}, {"type": "Feature", "geometry": {"type": "Point", "coordinates": [629174.3026509495, 5220776.176949012]}, "properties": {"point_id": "I080", "vineyard_id": "V01", "row_id": "V01-R19", "reason": "row_gap", "gap_length_m": 8.23}}, {"type": "Feature", "geometry": {"type": "Point", "coordinates": [629065.9033724089, 5220668.072187009]}, "properties": {"point_id": "I081", "vineyard_id": "V04", "row_id": "V04-R08", "reason": "row_gap", "gap_length_m": 8.15}}, {"type": "Feature", "geometry": {"type": "Point", "coordinates": [629955.9469253998, 5219683.0985236]}, "properties": {"point_id": "I082", "vineyard_id": "V28", "row_id": "V28-R04", "reason": "row_gap", "gap_length_m": 8.11}}, {"type": "Feature", "geometry": {"type": "Point", "coordinates": [630162.0802236687, 5219508.711668491]}, "properties": {"point_id": "I083", "vineyard_id": "V39", "row_id": "V39-R02", "reason": "row_gap", "gap_length_m": 8.11}}, {"type": "Feature", "geometry": {"type": "Point", "coordinates": [630158.4605454867, 5219506.105916356]}, "properties": {"point_id": "I084", "vineyard_id": "V39", "row_id": "V39-R03", "reason": "row_gap", "gap_length_m": 8.09}}, {"type": "Feature", "geometry": {"type": "Point", "coordinates": [630139.868614904, 5219282.169792495]}, "properties": {"point_id": "I085", "vineyard_id": "V52", "row_id": "V52-R01", "reason": "row_gap", "gap_length_m": 8.09}}, {"type": "Feature", "geometry": {"type": "Point", "coordinates": [629215.238574821, 5220869.872358147]}, "properties": {"point_id": "I086", "vineyard_id": "V01", "row_id": "V01-R49", "reason": "row_gap", "gap_length_m": 8.07}}, {"type": "Feature", "geometry": {"type": "Point", "coordinates": [629904.5359894729, 5219867.65187919]}, "properties": {"point_id": "I087", "vineyard_id": "V18", "row_id": "V18-R02", "reason": "row_gap", "gap_length_m": 8.02}}, {"type": "Feature", "geometry": {"type": "Point", "coordinates": [629244.5140831023, 5220832.945479106]}, "properties": {"point_id": "I088", "vineyard_id": "V01", "row_id": "V01-R54", "reason": "row_gap", "gap_length_m": 7.94}}, {"type": "Feature", "geometry": {"type": "Point", "coordinates": [629033.7463883845, 5220738.930598165]}, "properties": {"point_id": "I089", "vineyard_id": "V04", "row_id": "V04-R12", "reason": "row_gap", "gap_length_m": 7.93}}, {"type": "Feature", "geometry": {"type": "Point", "coordinates": [630338.6510362404, 5219439.680340583]}, "properties": {"point_id": "I090", "vineyard_id": "V46", "row_id": "V46-R09", "reason": "row_gap", "gap_length_m": 7.91}}, {"type": "Feature", "geometry": {"type": "Point", "coordinates": [630155.121165721, 5219269.394613711]}, "properties": {"point_id": "I091", "vineyard_id": "V51", "row_id": "V51-R09", "reason": "row_gap", "gap_length_m": 7.9}}, {"type": "Feature", "geometry": {"type": "Point", "coordinates": [629069.1503101409, 5220696.157431836]}, "properties": {"point_id": "I092", "vineyard_id": "V04", "row_id": "V04-R14", "reason": "row_gap", "gap_length_m": 7.88}}, {"type": "Feature", "geometry": {"type": "Point", "coordinates": [630227.7348404158, 5219349.7600163575]}, "properties": {"point_id": "I093", "vineyard_id": "V44", "row_id": "V44-R37", "reason": "row_gap", "gap_length_m": 7.86}}, {"type": "Feature", "geometry": {"type": "Point", "coordinates": [629258.5727665948, 5220790.726613477]}, "properties": {"point_id": "I094", "vineyard_id": "V01", "row_id": "V01-R53", "reason": "row_gap", "gap_length_m": 7.7}}, {"type": "Feature", "geometry": {"type": "Point", "coordinates": [630253.0542409577, 5219234.310323456]}, "properties": {"point_id": "I095", "vineyard_id": "V51", "row_id": "V51-R22", "reason": "row_gap", "gap_length_m": 7.64}}, {"type": "Feature", "geometry": {"type": "Point", "coordinates": [630277.0054527894, 5219268.808092538]}, "properties": {"point_id": "I096", "vineyard_id": "V53", "row_id": "V53-R10", "reason": "row_gap", "gap_length_m": 7.58}}, {"type": "Feature", "geometry": {"type": "Point", "coordinates": [629169.0198743459, 5220841.926247893]}, "properties": {"point_id": "I097", "vineyard_id": "V01", "row_id": "V01-R28", "reason": "row_gap", "gap_length_m": 7.55}}, {"type": "Feature", "geometry": {"type": "Point", "coordinates": [629265.9117410494, 5220766.624826205]}, "properties": {"point_id": "I098", "vineyard_id": "V01", "row_id": "V01-R52", "reason": "row_gap", "gap_length_m": 7.53}}, {"type": "Feature", "geometry": {"type": "Point", "coordinates": [630010.774886897, 5219630.199988137]}, "properties": {"point_id": "I099", "vineyard_id": "V30", "row_id": "V30-R05", "reason": "row_gap", "gap_length_m": 7.53}}, {"type": "Feature", "geometry": {"type": "Point", "coordinates": [630237.372238559, 5219364.4851453295]}, "properties": {"point_id": "I100", "vineyard_id": "V44", "row_id": "V44-R37", "reason": "row_gap", "gap_length_m": 7.52}}, {"type": "Feature", "geometry": {"type": "Point", "coordinates": [629670.5591086152, 5220092.152367956]}, "properties": {"point_id": "I101", "vineyard_id": "V14", "row_id": "V14-R19", "reason": "row_gap", "gap_length_m": 7.51}}, {"type": "Feature", "geometry": {"type": "Point", "coordinates": [629264.7511558589, 5220808.881473945]}, "properties": {"point_id": "I102", "vineyard_id": "V01", "row_id": "V01-R59", "reason": "row_gap", "gap_length_m": 7.48}}, {"type": "Feature", "geometry": {"type": "Point", "coordinates": [629127.0804094279, 5220816.920176077]}, "properties": {"point_id": "I103", "vineyard_id": "V01", "row_id": "V01-R07", "reason": "row_gap", "gap_length_m": 7.46}}, {"type": "Feature", "geometry": {"type": "Point", "coordinates": [629185.987356588, 5220841.065382712]}, "properties": {"point_id": "I104", "vineyard_id": "V01", "row_id": "V01-R34", "reason": "row_gap", "gap_length_m": 7.43}}, {"type": "Feature", "geometry": {"type": "Point", "coordinates": [629828.541984508, 5219961.610462107]}, "properties": {"point_id": "I105", "vineyard_id": "V18", "row_id": "V18-R01", "reason": "row_gap", "gap_length_m": 7.42}}, {"type": "Feature", "geometry": {"type": "Point", "coordinates": [629149.2547237715, 5220869.449978483]}, "properties": {"point_id": "I106", "vineyard_id": "V01", "row_id": "V01-R25", "reason": "row_gap", "gap_length_m": 7.41}}, {"type": "Feature", "geometry": {"type": "Point", "coordinates": [629222.3456767125, 5220488.863368382]}, "properties": {"point_id": "I107", "vineyard_id": "V12", "row_id": "V12-R13", "reason": "row_gap", "gap_length_m": 7.39}}, {"type": "Feature", "geometry": {"type": "Point", "coordinates": [629633.7547093936, 5220078.150984357]}, "properties": {"point_id": "I108", "vineyard_id": "V14", "row_id": "V14-R06", "reason": "row_gap", "gap_length_m": 7.25}}, {"type": "Feature", "geometry": {"type": "Point", "coordinates": [629680.1002900911, 5220079.644479423]}, "properties": {"point_id": "I109", "vineyard_id": "V14", "row_id": "V14-R19", "reason": "row_gap", "gap_length_m": 7.19}}, {"type": "Feature", "geometry": {"type": "Point", "coordinates": [629124.3312188141, 5220817.193736157]}, "properties": {"point_id": "I110", "vineyard_id": "V01", "row_id": "V01-R06", "reason": "row_gap", "gap_length_m": 7.16}}, {"type": "Feature", "geometry": {"type": "Point", "coordinates": [629613.9547503188, 5220258.371242076]}, "properties": {"point_id": "I111", "vineyard_id": "V14", "row_id": "V14-R39", "reason": "row_gap", "gap_length_m": 7.15}}, {"type": "Feature", "geometry": {"type": "Point", "coordinates": [629181.9994471318, 5220511.004246853]}, "properties": {"point_id": "I112", "vineyard_id": "V11", "row_id": "V11-R02", "reason": "row_gap", "gap_length_m": 7.05}}, {"type": "Feature", "geometry": {"type": "Point", "coordinates": [630254.3861519004, 5219236.797335964]}, "properties": {"point_id": "I113", "vineyard_id": "V51", "row_id": "V51-R23", "reason": "row_gap", "gap_length_m": 7.04}}, {"type": "Feature", "geometry": {"type": "Point", "coordinates": [629246.0163590516, 5220835.564493256]}, "properties": {"point_id": "I114", "vineyard_id": "V01", "row_id": "V01-R55", "reason": "row_gap", "gap_length_m": 6.98}}, {"type": "Feature", "geometry": {"type": "Point", "coordinates": [629210.5589531712, 5220560.606598268]}, "properties": {"point_id": "I115", "vineyard_id": "V09", "row_id": "V09-R06", "reason": "row_gap", "gap_length_m": 6.97}}, {"type": "Feature", "geometry": {"type": "Point", "coordinates": [630207.0338704211, 5219342.375359021]}, "properties": {"point_id": "I116", "vineyard_id": "V44", "row_id": "V44-R42", "reason": "row_gap", "gap_length_m": 6.95}}, {"type": "Feature", "geometry": {"type": "Point", "coordinates": [629153.0085284465, 5220827.879337836]}, "properties": {"point_id": "I117", "vineyard_id": "V01", "row_id": "V01-R19", "reason": "row_gap", "gap_length_m": 6.94}}, {"type": "Feature", "geometry": {"type": "Point", "coordinates": [629618.7877012191, 5220183.607264163]}, "properties": {"point_id": "I118", "vineyard_id": "V14", "row_id": "V14-R24", "reason": "row_gap", "gap_length_m": 6.93}}, {"type": "Feature", "geometry": {"type": "Point", "coordinates": [630135.2905751897, 5219288.98230827]}, "properties": {"point_id": "I119", "vineyard_id": "V52", "row_id": "V52-R01", "reason": "row_gap", "gap_length_m": 6.9}}, {"type": "Feature", "geometry": {"type": "Point", "coordinates": [629682.8562955004, 5220205.039207061]}, "properties": {"point_id": "I120", "vineyard_id": "V14", "row_id": "V14-R47", "reason": "row_gap", "gap_length_m": 6.86}}, {"type": "Feature", "geometry": {"type": "Point", "coordinates": [630257.1957529831, 5219241.618115336]}, "properties": {"point_id": "I121", "vineyard_id": "V51", "row_id": "V51-R25", "reason": "row_gap", "gap_length_m": 6.85}}, {"type": "Feature", "geometry": {"type": "Point", "coordinates": [629686.4640176275, 5220204.96733166]}, "properties": {"point_id": "I122", "vineyard_id": "V14", "row_id": "V14-R48", "reason": "row_gap", "gap_length_m": 6.84}}, {"type": "Feature", "geometry": {"type": "Point", "coordinates": [629137.7572132655, 5220837.7791169435]}, "properties": {"point_id": "I123", "vineyard_id": "V01", "row_id": "V01-R15", "reason": "row_gap", "gap_length_m": 6.84}}, {"type": "Feature", "geometry": {"type": "Point", "coordinates": [630313.6987933597, 5219356.916187944]}, "properties": {"point_id": "I124", "vineyard_id": "V44", "row_id": "V44-R10", "reason": "row_gap", "gap_length_m": 6.8}}, {"type": "Feature", "geometry": {"type": "Point", "coordinates": [629205.7597368729, 5220487.4207243165]}, "properties": {"point_id": "I125", "vineyard_id": "V12", "row_id": "V12-R09", "reason": "row_gap", "gap_length_m": 6.79}}, {"type": "Feature", "geometry": {"type": "Point", "coordinates": [629651.8528749646, 5220195.383891126]}, "properties": {"point_id": "I126", "vineyard_id": "V14", "row_id": "V14-R36", "reason": "row_gap", "gap_length_m": 6.79}}, {"type": "Feature", "geometry": {"type": "Point", "coordinates": [629832.697154441, 5219696.288549619]}, "properties": {"point_id": "I127", "vineyard_id": "V21", "row_id": "V21-R07", "reason": "row_gap", "gap_length_m": 6.79}}, {"type": "Feature", "geometry": {"type": "Point", "coordinates": [629164.6287635802, 5220832.68252716]}, "properties": {"point_id": "I128", "vineyard_id": "V01", "row_id": "V01-R25", "reason": "row_gap", "gap_length_m": 6.78}}, {"type": "Feature", "geometry": {"type": "Point", "coordinates": [630153.2925855808, 5219268.046317158]}, "properties": {"point_id": "I129", "vineyard_id": "V51", "row_id": "V51-R07", "reason": "row_gap", "gap_length_m": 6.76}}, {"type": "Feature", "geometry": {"type": "Point", "coordinates": [629883.9679105579, 5219642.504151459]}, "properties": {"point_id": "I130", "vineyard_id": "V27", "row_id": "V27-R01", "reason": "row_gap", "gap_length_m": 6.7}}, {"type": "Feature", "geometry": {"type": "Point", "coordinates": [629626.9690959225, 5220132.958001452]}, "properties": {"point_id": "I131", "vineyard_id": "V14", "row_id": "V14-R16", "reason": "row_gap", "gap_length_m": 6.65}}, {"type": "Feature", "geometry": {"type": "Point", "coordinates": [629221.6010005361, 5220781.265790954]}, "properties": {"point_id": "I132", "vineyard_id": "V01", "row_id": "V01-R38", "reason": "row_gap", "gap_length_m": 6.65}}, {"type": "Feature", "geometry": {"type": "Point", "coordinates": [629275.2132101492, 5220783.725283407]}, "properties": {"point_id": "I133", "vineyard_id": "V01", "row_id": "V01-R59", "reason": "row_gap", "gap_length_m": 6.64}}, {"type": "Feature", "geometry": {"type": "Point", "coordinates": [629632.6901732908, 5220188.058275928]}, "properties": {"point_id": "I134", "vineyard_id": "V14", "row_id": "V14-R29", "reason": "row_gap", "gap_length_m": 6.62}}, {"type": "Feature", "geometry": {"type": "Point", "coordinates": [629021.1393917406, 5220724.990871843]}, "properties": {"point_id": "I135", "vineyard_id": "V04", "row_id": "V04-R06", "reason": "row_gap", "gap_length_m": 6.57}}, {"type": "Feature", "geometry": {"type": "Point", "coordinates": [629685.9820833759, 5220155.968892774]}, "properties": {"point_id": "I136", "vineyard_id": "V14", "row_id": "V14-R37", "reason": "row_gap", "gap_length_m": 6.56}}, {"type": "Feature", "geometry": {"type": "Point", "coordinates": [630105.4328465331, 5219571.32540929]}, "properties": {"point_id": "I137", "vineyard_id": "V35", "row_id": "V35-R01", "reason": "row_gap", "gap_length_m": 6.52}}, {"type": "Feature", "geometry": {"type": "Point", "coordinates": [630237.4732858201, 5219308.541419677]}, "properties": {"point_id": "I138", "vineyard_id": "V44", "row_id": "V44-R25", "reason": "row_gap", "gap_length_m": 6.5}}, {"type": "Feature", "geometry": {"type": "Point", "coordinates": [630080.1259477547, 5219542.525330303]}, "properties": {"point_id": "I139", "vineyard_id": "V35", "row_id": "V35-R02", "reason": "row_gap", "gap_length_m": 6.5}}, {"type": "Feature", "geometry": {"type": "Point", "coordinates": [629677.202762201, 5220203.372018937]}, "properties": {"point_id": "I140", "vineyard_id": "V14", "row_id": "V14-R45", "reason": "row_gap", "gap_length_m": 6.46}}, {"type": "Feature", "geometry": {"type": "Point", "coordinates": [630308.8038271255, 5219336.507417106]}, "properties": {"point_id": "I141", "vineyard_id": "V44", "row_id": "V44-R06", "reason": "row_gap", "gap_length_m": 6.44}}, {"type": "Feature", "geometry": {"type": "Point", "coordinates": [629591.424223933, 5220175.018384655]}, "properties": {"point_id": "I142", "vineyard_id": "V14", "row_id": "V14-R15", "reason": "row_gap", "gap_length_m": 6.43}}, {"type": "Feature", "geometry": {"type": "Point", "coordinates": [629574.3161408809, 5220169.757591395]}, "properties": {"point_id": "I143", "vineyard_id": "V14", "row_id": "V14-R09", "reason": "row_gap", "gap_length_m": 6.42}}, {"type": "Feature", "geometry": {"type": "Point", "coordinates": [630153.2542663647, 5219499.686272954]}, "properties": {"point_id": "I144", "vineyard_id": "V39", "row_id": "V39-R03", "reason": "row_gap", "gap_length_m": 6.42}}, {"type": "Feature", "geometry": {"type": "Point", "coordinates": [629234.577906814, 5220816.927830562]}, "properties": {"point_id": "I145", "vineyard_id": "V01", "row_id": "V01-R48", "reason": "row_gap", "gap_length_m": 6.41}}, {"type": "Feature", "geometry": {"type": "Point", "coordinates": [629674.2880674858, 5220202.542594272]}, "properties": {"point_id": "I146", "vineyard_id": "V14", "row_id": "V14-R44", "reason": "row_gap", "gap_length_m": 6.4}}, {"type": "Feature", "geometry": {"type": "Point", "coordinates": [629157.5327384253, 5220830.359398798]}, "properties": {"point_id": "I147", "vineyard_id": "V01", "row_id": "V01-R22", "reason": "row_gap", "gap_length_m": 6.34}}, {"type": "Feature", "geometry": {"type": "Point", "coordinates": [629224.0080958843, 5220927.742656818]}, "properties": {"point_id": "I148", "vineyard_id": "V01", "row_id": "V01-R62", "reason": "row_gap", "gap_length_m": 6.33}}, {"type": "Feature", "geometry": {"type": "Point", "coordinates": [629652.8722362301, 5220085.475327831]}, "properties": {"point_id": "I149", "vineyard_id": "V14", "row_id": "V14-R13", "reason": "row_gap", "gap_length_m": 6.32}}, {"type": "Feature", "geometry": {"type": "Point", "coordinates": [629011.2863635496, 5220723.824494385]}, "properties": {"point_id": "I150", "vineyard_id": "V04", "row_id": "V04-R03", "reason": "row_gap", "gap_length_m": 6.3}}, {"type": "Feature", "geometry": {"type": "Point", "coordinates": [629157.1055001569, 5220537.737813283]}, "properties": {"point_id": "I151", "vineyard_id": "V10", "row_id": "V10-R02", "reason": "row_gap", "gap_length_m": 6.3}}, {"type": "Feature", "geometry": {"type": "Point", "coordinates": [629566.2671759779, 5220166.627264844]}, "properties": {"point_id": "I152", "vineyard_id": "V14", "row_id": "V14-R06", "reason": "row_gap", "gap_length_m": 6.29}}, {"type": "Feature", "geometry": {"type": "Point", "coordinates": [629206.268799223, 5220910.668241666]}, "properties": {"point_id": "I153", "vineyard_id": "V01", "row_id": "V01-R52", "reason": "row_gap", "gap_length_m": 6.28}}, {"type": "Feature", "geometry": {"type": "Point", "coordinates": [630326.7635235385, 5219427.823821996]}, "properties": {"point_id": "I154", "vineyard_id": "V46", "row_id": "V46-R03", "reason": "row_gap", "gap_length_m": 6.28}}, {"type": "Feature", "geometry": {"type": "Point", "coordinates": [629160.1005303977, 5220830.606841212]}, "properties": {"point_id": "I155", "vineyard_id": "V01", "row_id": "V01-R23", "reason": "row_gap", "gap_length_m": 6.28}}, {"type": "Feature", "geometry": {"type": "Point", "coordinates": [629156.4913906717, 5220871.690057292]}, "properties": {"point_id": "I156", "vineyard_id": "V01", "row_id": "V01-R28", "reason": "row_gap", "gap_length_m": 6.27}}, {"type": "Feature", "geometry": {"type": "Point", "coordinates": [629214.6212478153, 5220474.875310336]}, "properties": {"point_id": "I157", "vineyard_id": "V12", "row_id": "V12-R06", "reason": "row_gap", "gap_length_m": 6.26}}, {"type": "Feature", "geometry": {"type": "Point", "coordinates": [629206.8612657003, 5220883.091610549]}, "properties": {"point_id": "I158", "vineyard_id": "V01", "row_id": "V01-R48", "reason": "row_gap", "gap_length_m": 6.22}}, {"type": "Feature", "geometry": {"type": "Point", "coordinates": [629649.1670659505, 5220194.218844412]}, "properties": {"point_id": "I159", "vineyard_id": "V14", "row_id": "V14-R35", "reason": "row_gap", "gap_length_m": 6.21}}, {"type": "Feature", "geometry": {"type": "Point", "coordinates": [629612.8362647519, 5220181.858087549]}, "properties": {"point_id": "I160", "vineyard_id": "V14", "row_id": "V14-R22", "reason": "row_gap", "gap_length_m": 6.18}}, {"type": "Feature", "geometry": {"type": "Point", "coordinates": [629680.2899239006, 5220203.893640125]}, "properties": {"point_id": "I161", "vineyard_id": "V14", "row_id": "V14-R46", "reason": "row_gap", "gap_length_m": 6.18}}, {"type": "Feature", "geometry": {"type": "Polygon", "coordinates": [[[629114.375, 5220809.05], [629114.375, 5220809.649999999], [629114.0750000001, 5220809.649999999], [629114.0750000001, 5220809.05], [629114.375, 5220809.05]]]}, "properties": {"waste_id": "W001", "vineyard_id": ""}}, {"type": "Feature", "geometry": {"type": "Polygon", "coordinates": [[[629294.7, 5220758.6], [629294.7, 5220759.524999999], [629293.75, 5220759.524999999], [629293.75, 5220758.6], [629294.7, 5220758.6]]]}, "properties": {"waste_id": "W002", "vineyard_id": ""}}, {"type": "Feature", "geometry": {"type": "Polygon", "coordinates": [[[629285.875, 5220754.6], [629285.875, 5220755.925], [629285.0, 5220755.925], [629285.0, 5220754.6], [629285.875, 5220754.6]]]}, "properties": {"waste_id": "W003", "vineyard_id": "V01"}}, {"type": "Feature", "geometry": {"type": "Polygon", "coordinates": [[[629296.3, 5220745.399999999], [629296.3, 5220746.175], [629295.45, 5220746.175], [629295.45, 5220745.399999999], [629296.3, 5220745.399999999]]]}, "properties": {"waste_id": "W004", "vineyard_id": ""}}, {"type": "Feature", "geometry": {"type": "Polygon", "coordinates": [[[629275.225, 5220745.125], [629275.225, 5220745.824999999], [629274.75, 5220745.824999999], [629274.75, 5220745.125], [629275.225, 5220745.125]]]}, "properties": {"waste_id": "W005", "vineyard_id": "V01"}}, {"type": "Feature", "geometry": {"type": "Polygon", "coordinates": [[[629299.2, 5220742.85], [629299.2, 5220744.074999999], [629298.2, 5220744.074999999], [629298.2, 5220742.85], [629299.2, 5220742.85]]]}, "properties": {"waste_id": "W006", "vineyard_id": ""}}, {"type": "Feature", "geometry": {"type": "Polygon", "coordinates": [[[629292.95, 5220741.475], [629292.95, 5220742.0], [629292.475, 5220742.0], [629292.475, 5220741.475], [629292.95, 5220741.475]]]}, "properties": {"waste_id": "W007", "vineyard_id": ""}}, {"type": "Feature", "geometry": {"type": "Polygon", "coordinates": [[[629296.875, 5220736.024999999], [629296.875, 5220738.1], [629294.675, 5220738.1], [629294.675, 5220736.024999999], [629296.875, 5220736.024999999]]]}, "properties": {"waste_id": "W008", "vineyard_id": ""}}, {"type": "Feature", "geometry": {"type": "Polygon", "coordinates": [[[629295.575, 5220737.475], [629295.575, 5220738.074999999], [629295.125, 5220738.074999999], [629295.125, 5220737.475], [629295.575, 5220737.475]]]}, "properties": {"waste_id": "W009", "vineyard_id": ""}}, {"type": "Feature", "geometry": {"type": "Polygon", "coordinates": [[[629297.675, 5220735.3], [629297.675, 5220736.75], [629297.075, 5220736.75], [629297.075, 5220735.3], [629297.675, 5220735.3]]]}, "properties": {"waste_id": "W010", "vineyard_id": ""}}, {"type": "Feature", "geometry": {"type": "Polygon", "coordinates": [[[629298.8, 5220734.949999999], [629298.8, 5220735.625], [629297.9, 5220735.625], [629297.9, 5220734.949999999], [629298.8, 5220734.949999999]]]}, "properties": {"waste_id": "W011", "vineyard_id": ""}}, {"type": "Feature", "geometry": {"type": "Polygon", "coordinates": [[[629298.175, 5220734.6], [629298.175, 5220734.975], [629297.725, 5220734.975], [629297.725, 5220734.6], [629298.175, 5220734.6]]]}, "properties": {"waste_id": "W012", "vineyard_id": ""}}, {"type": "Feature", "geometry": {"type": "Polygon", "coordinates": [[[629300.5750000001, 5220742.074999999], [629300.5750000001, 5220742.899999999], [629300.025, 5220742.899999999], [629300.025, 5220742.074999999], [629300.5750000001, 5220742.074999999]]]}, "properties": {"waste_id": "W013", "vineyard_id": ""}}, {"type": "Feature", "geometry": {"type": "Polygon", "coordinates": [[[629312.1250000001, 5220736.675], [629312.1250000001, 5220737.399999999], [629311.8, 5220737.399999999], [629311.8, 5220736.675], [629312.1250000001, 5220736.675]]]}, "properties": {"waste_id": "W014", "vineyard_id": ""}}, {"type": "Feature", "geometry": {"type": "Polygon", "coordinates": [[[629311.1250000001, 5220731.475], [629311.1250000001, 5220731.949999999], [629310.55, 5220731.949999999], [629310.55, 5220731.475], [629311.1250000001, 5220731.475]]]}, "properties": {"waste_id": "W015", "vineyard_id": ""}}, {"type": "Feature", "geometry": {"type": "Polygon", "coordinates": [[[629311.675, 5220731.074999999], [629311.675, 5220731.574999999], [629311.1250000001, 5220731.574999999], [629311.1250000001, 5220731.074999999], [629311.675, 5220731.074999999]]]}, "properties": {"waste_id": "W016", "vineyard_id": ""}}, {"type": "Feature", "geometry": {"type": "Polygon", "coordinates": [[[629320.55, 5220728.649999999], [629320.55, 5220729.625], [629319.0000000001, 5220729.625], [629319.0000000001, 5220728.649999999], [629320.55, 5220728.649999999]]]}, "properties": {"waste_id": "W017", "vineyard_id": ""}}, {"type": "Feature", "geometry": {"type": "Polygon", "coordinates": [[[629321.6000000001, 5220723.824999999], [629321.6000000001, 5220724.725], [629320.5750000001, 5220724.725], [629320.5750000001, 5220723.824999999], [629321.6000000001, 5220723.824999999]]]}, "properties": {"waste_id": "W018", "vineyard_id": ""}}, {"type": "Feature", "geometry": {"type": "Polygon", "coordinates": [[[629324.0750000001, 5220721.949999999], [629324.0750000001, 5220722.875], [629323.4, 5220722.875], [629323.4, 5220721.949999999], [629324.0750000001, 5220721.949999999]]]}, "properties": {"waste_id": "W019", "vineyard_id": ""}}, {"type": "Feature", "geometry": {"type": "Polygon", "coordinates": [[[629324.775, 5220721.6], [629324.775, 5220722.125], [629324.1000000001, 5220722.125], [629324.1000000001, 5220721.6], [629324.775, 5220721.6]]]}, "properties": {"waste_id": "W020", "vineyard_id": ""}}, {"type": "Feature", "geometry": {"type": "Polygon", "coordinates": [[[629326.8750000001, 5220720.399999999], [629326.8750000001, 5220720.899999999], [629326.2250000001, 5220720.899999999], [629326.2250000001, 5220720.399999999], [629326.8750000001, 5220720.399999999]]]}, "properties": {"waste_id": "W021", "vineyard_id": ""}}, {"type": "Feature", "geometry": {"type": "Polygon", "coordinates": [[[629327.5000000001, 5220719.824999999], [629327.5000000001, 5220720.5], [629326.9500000001, 5220720.5], [629326.9500000001, 5220719.824999999], [629327.5000000001, 5220719.824999999]]]}, "properties": {"waste_id": "W022", "vineyard_id": ""}}, {"type": "Feature", "geometry": {"type": "Polygon", "coordinates": [[[629327.9750000001, 5220719.175], [629327.9750000001, 5220719.824999999], [629327.5000000001, 5220719.824999999], [629327.5000000001, 5220719.175], [629327.9750000001, 5220719.175]]]}, "properties": {"waste_id": "W023", "vineyard_id": ""}}, {"type": "Feature", "geometry": {"type": "Polygon", "coordinates": [[[629319.5750000001, 5220718.449999999], [629319.5750000001, 5220718.824999999], [629319.2000000001, 5220718.824999999], [629319.2000000001, 5220718.449999999], [629319.5750000001, 5220718.449999999]]]}, "properties": {"waste_id": "W024", "vineyard_id": ""}}, {"type": "Feature", "geometry": {"type": "Polygon", "coordinates": [[[629076.5000000001, 5220653.375], [629076.5000000001, 5220653.925], [629076.1250000001, 5220653.925], [629076.1250000001, 5220653.375], [629076.5000000001, 5220653.375]]]}, "properties": {"waste_id": "W025", "vineyard_id": "V03"}}, {"type": "Feature", "geometry": {"type": "Polygon", "coordinates": [[[629076.05, 5220653.275], [629076.05, 5220653.825], [629075.5000000001, 5220653.825], [629075.5000000001, 5220653.275], [629076.05, 5220653.275]]]}, "properties": {"waste_id": "W026", "vineyard_id": "V03"}}, {"type": "Feature", "geometry": {"type": "Polygon", "coordinates": [[[629841.4, 5220022.7], [629841.4, 5220023.1], [629841.0000000001, 5220023.1], [629841.0000000001, 5220022.7], [629841.4, 5220022.7]]]}, "properties": {"waste_id": "W027", "vineyard_id": ""}}, {"type": "Feature", "geometry": {"type": "Polygon", "coordinates": [[[629843.0750000001, 5220019.274999999], [629843.0750000001, 5220019.825], [629842.525, 5220019.825], [629842.525, 5220019.274999999], [629843.0750000001, 5220019.274999999]]]}, "properties": {"waste_id": "W028", "vineyard_id": ""}}, {"type": "Feature", "geometry": {"type": "Polygon", "coordinates": [[[630041.85, 5219767.725], [630041.85, 5219768.1], [630041.2, 5219768.1], [630041.2, 5219767.725], [630041.85, 5219767.725]]]}, "properties": {"waste_id": "W029", "vineyard_id": "V21"}}, {"type": "Feature", "geometry": {"type": "Polygon", "coordinates": [[[630040.175, 5219766.0], [630040.175, 5219766.725], [630039.825, 5219766.725], [630039.825, 5219766.0], [630040.175, 5219766.0]]]}, "properties": {"waste_id": "W030", "vineyard_id": "V21"}}, {"type": "Feature", "geometry": {"type": "Polygon", "coordinates": [[[630039.5, 5219764.2], [630039.5, 5219764.925], [630039.1, 5219764.925], [630039.1, 5219764.2], [630039.5, 5219764.2]]]}, "properties": {"waste_id": "W031", "vineyard_id": "V21"}}, {"type": "Feature", "geometry": {"type": "Polygon", "coordinates": [[[630039.125, 5219752.45], [630039.125, 5219753.575], [630038.2, 5219753.575], [630038.2, 5219752.45], [630039.125, 5219752.45]]]}, "properties": {"waste_id": "W032", "vineyard_id": ""}}, {"type": "Feature", "geometry": {"type": "Polygon", "coordinates": [[[629992.5, 5219736.225], [629992.5, 5219736.574999999], [629992.15, 5219736.574999999], [629992.15, 5219736.225], [629992.5, 5219736.225]]]}, "properties": {"waste_id": "W033", "vineyard_id": "V18"}}, {"type": "Feature", "geometry": {"type": "Polygon", "coordinates": [[[629980.175, 5219721.625], [629980.175, 5219722.199999999], [629979.4500000001, 5219722.199999999], [629979.4500000001, 5219721.625], [629980.175, 5219721.625]]]}, "properties": {"waste_id": "W034", "vineyard_id": ""}}, {"type": "Feature", "geometry": {"type": "Polygon", "coordinates": [[[629977.7250000001, 5219719.024999999], [629977.7250000001, 5219719.399999999], [629977.4, 5219719.399999999], [629977.4, 5219719.024999999], [629977.7250000001, 5219719.024999999]]]}, "properties": {"waste_id": "W035", "vineyard_id": ""}}, {"type": "Feature", "geometry": {"type": "Polygon", "coordinates": [[[630031.375, 5219733.074999999], [630031.375, 5219734.425], [630030.65, 5219734.425], [630030.65, 5219733.074999999], [630031.375, 5219733.074999999]]]}, "properties": {"waste_id": "W036", "vineyard_id": ""}}, {"type": "Feature", "geometry": {"type": "Polygon", "coordinates": [[[630065.35, 5219547.275], [630065.35, 5219547.9], [630064.475, 5219547.9], [630064.475, 5219547.275], [630065.35, 5219547.275]]]}, "properties": {"waste_id": "W037", "vineyard_id": "V40"}}, {"type": "Feature", "geometry": {"type": "Polygon", "coordinates": [[[630172.7250000001, 5219416.775], [630172.7250000001, 5219417.600000001], [630172.0750000001, 5219417.600000001], [630172.0750000001, 5219416.775], [630172.7250000001, 5219416.775]]]}, "properties": {"waste_id": "W038", "vineyard_id": "V49"}}, {"type": "Feature", "geometry": {"type": "Polygon", "coordinates": [[[630230.8, 5219379.375], [630230.8, 5219380.225000001], [630230.25, 5219380.225000001], [630230.25, 5219379.375], [630230.8, 5219379.375]]]}, "properties": {"waste_id": "W039", "vineyard_id": "V50"}}]}