{"type": "FeatureCollection", "crs": {"type": "name", "properties": {"name": "urn:ogc:def:crs:EPSG::32635"}}, "features": [{"type": "Feature", "geometry": {"type": "LineString", "coordinates": [[629504.7, 5220250.75], [629499.5395023207, 5220321.89198067], [629481.7970967068, 5220358.894838063], [629450.1910624623, 5220485.950634781], [629440.3618339353, 5220509.899588568], [629417.1872961199, 5220531.70414862], [629197.6472984398, 5220690.010751428], [629191.0603812105, 5220700.420848184], [629194.1478255477, 5220707.43321836], [629284.7601556685, 5220756.152574003], [629280.1035177049, 5220752.653589616], [629292.7125, 5220741.737499999], [629295.9269770703, 5220738.521124357], [629296.5377290328, 5220738.048829439], [629298.0410511947, 5220736.886309683], [629299.0080812703, 5220736.138504939], [629298.9997279455, 5220736.144964487], [629310.6901950092, 5220731.5001769895], [629311.2514070448, 5220731.110820537], [629321.0875000003, 5220724.274999999], [629323.7375000002, 5220722.4125], [629324.4345918279, 5220721.859085437], [629326.2570559747, 5220720.306199809], [629326.8887844781, 5220719.767916448], [629327.5127576761, 5220719.236241226], [629277.7495808117, 5220754.0038225455], [629176.4778928315, 5220698.737204514], [629163.0895055663, 5220694.559259957], [629146.4159776239, 5220732.016940418], [629144.5625, 5220734.9625], [629144.5875, 5220734.7875], [629144.5, 5220734.9], [629144.3375, 5220734.775], [629143.0106635423, 5220735.068044011], [629142.9570730242, 5220737.227700662], [629142.7320730243, 5220737.440200662], [629140.779113813, 5220742.7330843], [629140.7958333334, 5220742.112499999], [629140.8375, 5220741.554166668], [629140.6625000001, 5220741.55], [629140.2582632013, 5220741.100555265], [629140.6625000001, 5220741.55], [629140.9125000001, 5220741.754166666], [629140.7411752681, 5220742.660022563], [629141.0161752681, 5220742.768355898], [629141.7458333335, 5220741.370833333], [629141.6150468028, 5220744.969386701], [629128.6262229638, 5220781.829679914], [629116.7610454871, 5220810.412655933], [629114.2250000001, 5220809.350000001], [629098.1636607922, 5220792.1950129215], [629047.7688261193, 5220759.378416199], [629029.2725550809, 5220742.999061656], [629033.7463883845, 5220738.930598165], [629029.2950714391, 5220743.1165834665], [629013.8640398188, 5220732.581605881], [629019.1875, 5220725.25], [629021.1393917406, 5220724.990871843], [629018.2625, 5220726.174999999], [629013.9763600419, 5220733.2542099375], [629008.7316093979, 5220732.065360223], [629009.1301157026, 5220729.372506428], [629011.786421228, 5220724.354556481], [629009.0863717184, 5220729.528726349], [629008.7316093979, 5220732.065360223], [629104.6530941628, 5220797.829899808], [629124.3312188141, 5220817.193736157], [629155.1764634271, 5220829.352380422], [629183.8574590357, 5220838.735495735], [629185.987356588, 5220841.065382712], [629188.165849282, 5220842.599125173], [629203.9891280832, 5220854.101453938], [629237.2131035213, 5220860.222030461], [629243.7125000001, 5220845.320833334], [629246.0163590516, 5220835.564493256], [629240.5958333334, 5220852.895833333], [629236.9634052818, 5220860.53929569], [629234.7003670684, 5220859.320296906], [629241.0625, 5220844.125], [629245.1208333335, 5220833.595833333], [629244.5519113968, 5220833.134618666], [629245.1125, 5220834.5], [629238.4875, 5220850.8375], [629233.5613737111, 5220859.888931168], [629233.8708333333, 5220854.4375], [629240.0791666667, 5220839.645833334], [629244.0958333334, 5220831.787500001], [629243.1041666666, 5220830.579166667], [629243.3208333333, 5220830.154166667], [629243.2625000001, 5220830.0], [629243.2611240747, 5220829.357250917], [629243.2875, 5220831.1375], [629244.0958333334, 5220831.787500001], [629239.75, 5220841.25], [629233.5, 5220856.2125], [629231.0622488528, 5220859.453454409], [629221.022626005, 5220855.9805340795], [629218.7464381342, 5220855.489751245], [629216.208671914, 5220854.988068209], [629202.4323715528, 5220852.98823826], [629203.4545172689, 5220851.897570573], [629191.0509849233, 5220842.369760687], [629192.114433871, 5220846.405545844], [629183.7235715485, 5220840.524112754], [629181.6510175829, 5220838.275], [629174.6024229587, 5220835.255161685], [629178.9943731502, 5220837.517825535], [629164.6287635802, 5220832.68252716], [629162.0946422564, 5220832.0336607415], [629160.1005303977, 5220830.606841212], [629157.5327384253, 5220830.359398798], [629153.0085284465, 5220827.879337836], [629150.4846778677, 5220827.326772571], [629135.4773131827, 5220822.962564169], [629133.400951378, 5220821.677116982], [629127.0804094279, 5220816.920176077], [629117.7921376787, 5220810.629524863], [629138.8879818097, 5220754.1466505155], [629149.0493109572, 5220725.633607084], [629164.4238345381, 5220693.574919917], [629187.645732485, 5220703.250654244], [629199.5194203188, 5220688.96255687], [629425.0500025199, 5220526.004616495], [629440.5126881256, 5220509.666199068], [629458.2032067704, 5220465.517365214], [629492.4080238428, 5220435.983347504], [629501.7662810481, 5220433.9540956905], [629507.1273170407, 5220438.069554509], [629514.3296435344, 5220456.089355003], [629709.5829596417, 5220212.241296372], [629691.5121298487, 5220207.4877836285], [629688.2611160739, 5220206.570169855], [629682.9057115702, 5220204.88240607], [629677.2850129413, 5220203.111034335], [629674.3958744014, 5220202.200517962], [629680.2899239006, 5220203.893640125], [629686.4640176275, 5220204.96733166], [629653.6360517236, 5220195.658028422], [629653.1375000001, 5220196.970833334], [629651.7125, 5220195.8375], [629651.8594578396, 5220195.38895585], [629652.1291666667, 5220197.137500001], [629653.4500000001, 5220196.262500001], [629653.7044594337, 5220193.606178124], [629649.1670659505, 5220194.218844412], [629632.6901732908, 5220188.058275928], [629618.7877012191, 5220183.607264163], [629612.8362647519, 5220181.858087549], [629591.424223933, 5220175.018384655], [629607.5473097115, 5220177.86463195], [629612.4750000001, 5220169.835564947], [629607.2397145671, 5220177.890697924], [629574.3161408809, 5220169.757591395], [629571.2004978161, 5220169.678338705], [629569.0208333333, 5220175.3125], [629564.1442045494, 5220183.065489495], [629571.2, 5220169.987500001], [629571.3554125116, 5220167.63019061], [629566.2671759779, 5220166.627264844], [629560.8125, 5220161.629166667], [629569.2041666667, 5220152.020833335], [629574.7000000002, 5220142.625], [629574.6001394489, 5220141.845106821], [629578.5708333333, 5220133.670833335], [629585.7625000001, 5220127.125], [629585.9625000001, 5220127.125], [629586.0250000001, 5220127.2625], [629587.3, 5220127.612500001], [629595.9000000001, 5220116.475000001], [629604.25, 5220105.575], [629606.5625, 5220101.543177193], [629608.8041666667, 5220099.004166666], [629607.3624999999, 5220097.929692216], [629612.0625, 5220093.204166668], [629614.5541666667, 5220093.129166667], [629623.6529894251, 5220080.515106749], [629625.9882305509, 5220081.537327442], [629627.2625, 5220081.8625], [629627.4625, 5220082.05], [629629.320786614, 5220082.289334857], [629630.9875, 5220079.412500001], [629631.2, 5220079.475], [629631.2625000001, 5220079.275], [629631.3208333333, 5220077.7125], [629633.6018616698, 5220077.998136953], [629631.0375000001, 5220078.612500001], [629631.2708333335, 5220079.145833333], [629631.2625000001, 5220079.275], [629631.2458333333, 5220079.4375], [629631.4708333333, 5220079.312500001], [629631.575, 5220080.387500001], [629643.225, 5220084.100355195], [629652.8722362301, 5220085.475327831], [629665.817662464, 5220088.658251006], [629676.4875, 5220074.5875], [629680.4791666667, 5220071.120833334], [629680.3875000001, 5220071.487500001], [629679.1000000001, 5220071.375], [629668.3625, 5220085.725000001], [629666.2567442411, 5220090.31418606], [629671.6791666667, 5220088.170833335], [629682.6791666668, 5220072.429166666], [629692.4541666668, 5220059.604166667], [629696.2125000001, 5220055.162500001], [629696.8625, 5220056.6375], [629694.5791666667, 5220056.604166669], [629692.0208333335, 5220060.029166667], [629691.3125000001, 5220059.162500001], [629687.5375000001, 5220068.6375], [629685.2689465416, 5220068.881839623], [629679.5625, 5220078.987500001], [629679.6375000001, 5220079.0875], [629675.7291666667, 5220081.279166668], [629670.5591086152, 5220092.152367956], [629694.3922918775, 5220097.16994797], [629704.9663089471, 5220101.33821544], [629714.3304092812, 5220103.150073856], [629716.5375000001, 5220101.575], [629716.7125000001, 5220101.575], [629716.8125, 5220101.675000001], [629717.0375000001, 5220101.675000001], [629719.2958333334, 5220102.795833334], [629719.4375000001, 5220102.825], [629719.5875, 5220102.975], [629719.7000000001, 5220102.975], [629752.5578860538, 5220113.287956254], [629787.5681111468, 5220121.133879427], [629825.9405665334, 5220081.188627688], [629971.4253029478, 5219886.06587667], [630032.6331585498, 5219811.364717925], [630033.0728273683, 5219805.181875592], [630011.3801857678, 5219764.02515409], [630005.6616973636, 5219758.075527101], [629998.4484076682, 5219749.140462732], [629989.0850438456, 5219753.860104632], [629925.8875000002, 5219835.137499999], [629926.0791666668, 5219835.254166666], [629926.3625000002, 5219835.225], [629926.4875000002, 5219835.3], [629926.7000000002, 5219835.325], [629926.7041666667, 5219837.6875], [629904.0428672205, 5219867.24026605], [629921.6500000001, 5219843.1625], [629921.8917728201, 5219845.355086959], [629926.7958333335, 5219835.287500001], [629926.7000000002, 5219835.325], [629926.4875000002, 5219835.3], [629926.3625000002, 5219835.225], [629925.8875000002, 5219835.225], [629926.0625000001, 5219834.875], [629991.4100438457, 5219751.222604631], [629998.4484076682, 5219749.140462732], [629997.4194660324, 5219743.128309103], [629995.5877253166, 5219740.831672468], [629993.65, 5219740.6875], [629992.1395046212, 5219736.54975067], [629979.8125000001, 5219721.9125], [629977.5625, 5219719.2125], [629973.3653167391, 5219714.843687349], [630032.3242003152, 5219647.435376955], [630221.1612971787, 5219489.6883960245], [630261.2970116322, 5219464.564970943], [630277.0860850026, 5219457.651304508], [630304.6251507853, 5219435.687642482], [630310.2785310482, 5219427.709065625], [630309.9910310482, 5219427.684065625], [630305.9375000001, 5219421.437500001], [630306.6625000001, 5219422.1625000015], [630306.7791666667, 5219421.929166667], [630307.4000000001, 5219420.075000001], [630297.8813318766, 5219407.202401746], [630286.1008691968, 5219392.777962511], [630299.1708333333, 5219408.154166667], [630309.5708333333, 5219422.3875], [630311.1305250901, 5219428.991934888], [630315.5513210841, 5219425.560750107], [630287.6263969488, 5219450.006367441], [630267.6584361936, 5219463.101051656], [630248.1964447608, 5219471.850361824], [630200.8091796949, 5219506.215570027], [630019.6027251594, 5219659.997263895], [629971.9149768855, 5219715.481263842], [629905.6830667603, 5219662.621522628], [629900.3389853671, 5219660.460836731], [629882.4657033121, 5219670.490438253], [629857.9965620753, 5219696.097373755], [629612.2391240257, 5220008.849596746], [629548.2520369934, 5220094.633486631], [629535.9883911397, 5220119.859521935], [629516.6394601101, 5220145.70311828], [629508.7089052941, 5220154.128019153], [629503.2814467401, 5220232.373496233], [629504.7, 5220250.75]]}, "properties": {"purpose": "inspection", "length_m": 6111.38, "baseline_length_m": 6354.173194959257, "baseline_kind": "nearest_neighbour", "walking_speed_kmh": 4.0, "path_mode": "supplied", "outside_supplied_length_m": 0.0, "coverage_ratio": 0.395, "outside_length_m": 0.0, "start": [629504.7, 5220250.75], "crs": "EPSG:32635", "targets_total": 200}}]}