{
"type": "FeatureCollection",
"name": "siret3_r007_c003__rows",
"crs": { "type": "name", "properties": { "name": "urn:ogc:def:crs:EPSG::32635" } },
"features": [
{ "type": "Feature", "properties": { "label": "row", "length_m": 13.788569310498051 }, "geometry": { "type": "LineString", "coordinates": [ [ 629154.712999725481495, 5220863.345039367675781 ], [ 629159.980282592820004, 5220850.602183532901108 ] ] } },
{ "type": "Feature", "properties": { "label": "row", "length_m": 6.5899280228733126 }, "geometry": { "type": "LineString", "coordinates": [ [ 629163.390483093331568, 5220842.35206756554544 ], [ 629165.90785903937649, 5220836.261914062313735 ] ] } },
{ "type": "Feature", "properties": { "label": "row", "length_m": 28.016448522345819 }, "geometry": { "type": "LineString", "coordinates": [ [ 629157.611308670137078, 5220863.069369507022202 ], [ 629168.269812011858448, 5220837.159570312127471 ] ] } },
{ "type": "Feature", "properties": { "label": "row", "length_m": 20.627121818226616 }, "geometry": { "type": "LineString", "coordinates": [ [ 629160.514839553972706, 5220862.519309997558594 ], [ 629168.373049163958058, 5220843.447689819149673 ] ] } },
{ "type": "Feature", "properties": { "label": "row", "length_m": 23.08737103008561 }, "geometry": { "type": "LineString", "coordinates": [ [ 629176.760165405343287, 5220863.521846008487046 ], [ 629185.440149688860402, 5220842.128282165154815 ] ] } },
{ "type": "Feature", "properties": { "label": "row", "length_m": 22.916670156832023 }, "geometry": { "type": "LineString", "coordinates": [ [ 629179.262607956072316, 5220863.453857421875 ], [ 629188.44083099369891, 5220842.455429077148438 ] ] } },
{ "type": "Feature", "properties": { "label": "row", "length_m": 19.371212757421926 }, "geometry": { "type": "LineString", "coordinates": [ [ 629182.314848327776417, 5220863.195824432186782 ], [ 629189.96156997687649, 5220845.39774780254811 ] ] } },
{ "type": "Feature", "properties": { "label": "row", "length_m": 14.799885035940902 }, "geometry": { "type": "LineString", "coordinates": [ [ 629185.151718521257862, 5220863.451011657714844 ], [ 629190.663480758783408, 5220849.715762329287827 ] ] } },
{ "type": "Feature", "properties": { "label": "row", "length_m": 15.77766975579952 }, "geometry": { "type": "LineString", "coordinates": [ [ 629188.086223602411337, 5220863.377011490054429 ], [ 629193.713999176165089, 5220848.637167358770967 ] ] } },
{ "type": "Feature", "properties": { "label": "row", "length_m": 26.152048362949838 }, "geometry": { "type": "LineString", "coordinates": [ [ 629162.933592224260792, 5220863.354882812127471 ], [ 629172.871553802629933, 5220839.164666747674346 ] ] } },
{ "type": "Feature", "properties": { "label": "row", "length_m": 10.035889556458178 }, "geometry": { "type": "LineString", "coordinates": [ [ 629153.996324920793995, 5220858.306195450015366 ], [ 629157.831860733102076, 5220849.032159423455596 ] ] } },
{ "type": "Feature", "properties": { "label": "row", "length_m": 11.477707123455732 }, "geometry": { "type": "LineString", "coordinates": [ [ 629190.801514434861019, 5220863.171397018246353 ], [ 629194.964780426118523, 5220852.475370788946748 ] ] } },
{ "type": "Feature", "properties": { "label": "row", "length_m": 22.491757380597246 }, "geometry": { "type": "LineString", "coordinates": [ [ 629165.748736953828484, 5220863.214622497558594 ], [ 629174.125317382859066, 5220842.340905761346221 ] ] } },
{ "type": "Feature", "properties": { "label": "row", "length_m": 23.076459967278506 }, "geometry": { "type": "LineString", "coordinates": [ [ 629173.912067794939503, 5220863.451204681769013 ], [ 629182.747465515276417, 5220842.133166504092515 ] ] } },
{ "type": "Feature", "properties": { "label": "row", "length_m": 14.122481228416282 }, "geometry": { "type": "LineString", "coordinates": [ [ 629149.29853210458532, 5220862.854611205868423 ], [ 629154.573984527727589, 5220849.75445556640625 ] ] } },
{ "type": "Feature", "properties": { "label": "row", "length_m": 7.1072101413857256 }, "geometry": { "type": "LineString", "coordinates": [ [ 629193.772177219507284, 5220862.686536979861557 ], [ 629196.273419570992701, 5220856.034001922234893 ] ] } },
{ "type": "Feature", "properties": { "label": "row", "length_m": 21.400838804236027 }, "geometry": { "type": "LineString", "coordinates": [ [ 629167.973039245698601, 5220862.732411193661392 ], [ 629176.653331756708212, 5220843.171009826473892 ] ] } },
{ "type": "Feature", "properties": { "label": "row", "length_m": 21.481040162909022 }, "geometry": { "type": "LineString", "coordinates": [ [ 629171.097232055733912, 5220862.714247131720185 ], [ 629179.851318359491415, 5220843.097900390625 ] ] } },
{ "type": "Feature", "properties": { "label": "row", "length_m": 13.593426438429864 }, "geometry": { "type": "LineString", "coordinates": [ [ 629147.155281639192253, 5220861.593334197998047 ], [ 629152.412761688348837, 5220849.057778930291533 ] ] } },
{ "type": "Feature", "properties": { "label": "row", "length_m": 17.152790835098898 }, "geometry": { "type": "LineString", "coordinates": [ [ 629145.793132400605828, 5220857.823116302490234 ], [ 629152.913063049432822, 5220842.21783447265625 ] ] } },
{ "type": "Feature", "properties": { "label": "row", "length_m": 3.1786896901154922 }, "geometry": { "type": "LineString", "coordinates": [ [ 629156.08358764660079, 5220835.268760681152344 ], [ 629157.403025817940943, 5220832.37684936542064 ] ] } },
{ "type": "Feature", "properties": { "label": "row", "length_m": 23.529483404592256 }, "geometry": { "type": "LineString", "coordinates": [ [ 629145.903141784714535, 5220851.690460205078125 ], [ 629155.333196258638054, 5220830.133311462588608 ] ] } },
{ "type": "Feature", "properties": { "label": "row", "length_m": 14.518075712631944 }, "geometry": { "type": "LineString", "coordinates": [ [ 629146.230028343270533, 5220843.986434173770249 ], [ 629152.059963989304379, 5220830.690330505371094 ] ] } },
{ "type": "Feature", "properties": { "label": "row", "length_m": 4.8209036640985401 }, "geometry": { "type": "LineString", "coordinates": [ [ 629193.534117889474146, 5220836.488682555966079 ], [ 629195.548281860421412, 5220832.108699035830796 ] ] } },
{ "type": "Feature", "properties": { "label": "row", "length_m": 15.264910933399577 }, "geometry": { "type": "LineString", "coordinates": [ [ 629188.924037551973015, 5220840.78446655254811 ], [ 629194.784579467843287, 5220826.689376831054688 ] ] } },
{ "type": "Feature", "properties": { "label": "row", "length_m": 22.631060357543141 }, "geometry": { "type": "LineString", "coordinates": [ [ 629186.240390777704306, 5220839.666658019647002 ], [ 629195.347348022507504, 5220818.94883422832936 ] ] } },
{ "type": "Feature", "properties": { "label": "row", "length_m": 22.382477870220114 }, "geometry": { "type": "LineString", "coordinates": [ [ 629184.31063003547024, 5220837.728916168212891 ], [ 629193.342279052827507, 5220817.249545288272202 ] ] } },
{ "type": "Feature", "properties": { "label": "row", "length_m": 22.641660734418881 }, "geometry": { "type": "LineString", "coordinates": [ [ 629181.976010894868523, 5220837.715642547234893 ], [ 629190.427720642182976, 5220816.710562134161592 ] ] } },
{ "type": "Feature", "properties": { "label": "row", "length_m": 22.44456415173893 }, "geometry": { "type": "LineString", "coordinates": [ [ 629179.213951110956259, 5220837.563725280575454 ], [ 629187.715573883149773, 5220816.79160766582936 ] ] } },
{ "type": "Feature", "properties": { "label": "row", "length_m": 24.659561535426342 }, "geometry": { "type": "LineString", "coordinates": [ [ 629176.850824356195517, 5220836.754895782098174 ], [ 629186.182760620256886, 5220813.929275512695312 ] ] } },
{ "type": "Feature", "properties": { "label": "row", "length_m": 21.366365385906292 }, "geometry": { "type": "LineString", "coordinates": [ [ 629175.488327026483603, 5220833.885822296142578 ], [ 629183.19265747081954, 5220813.956826781854033 ] ] } },
{ "type": "Feature", "properties": { "label": "row", "length_m": 20.763796785555893 }, "geometry": { "type": "LineString", "coordinates": [ [ 629172.732421493623406, 5220833.025949096307158 ], [ 629180.657472992083058, 5220813.834054565057158 ] ] } },
{ "type": "Feature", "properties": { "label": "row", "length_m": 19.514254524471855 }, "geometry": { "type": "LineString", "coordinates": [ [ 629162.527871704194695, 5220831.4713134765625 ], [ 629169.943144989083521, 5220813.420832824893296 ] ] } },
{ "type": "Feature", "properties": { "label": "row", "length_m": 18.200074291034714 }, "geometry": { "type": "LineString", "coordinates": [ [ 629165.504050827119499, 5220830.093901825137436 ], [ 629172.810472870012745, 5220813.424801635555923 ] ] } },
{ "type": "Feature", "properties": { "label": "row", "length_m": 10.019983295771208 }, "geometry": { "type": "LineString", "coordinates": [ [ 629160.749621772905812, 5220829.196318817324936 ], [ 629164.538171768304892, 5220819.920169067569077 ] ] } },
{ "type": "Feature", "properties": { "label": "row", "length_m": 2.0529551551792018 }, "geometry": { "type": "LineString", "coordinates": [ [ 629166.405641937395558, 5220815.347724914550781 ], [ 629167.181863403413445, 5220813.447171020321548 ] ] } },
{ "type": "Feature", "properties": { "label": "row", "length_m": 14.344552797863438 }, "geometry": { "type": "LineString", "coordinates": [ [ 629169.702914619585499, 5220827.096911621280015 ], [ 629175.315997314522974, 5220813.896173095330596 ] ] } },
{ "type": "Feature", "properties": { "label": "row", "length_m": 18.155974892695749 }, "geometry": { "type": "LineString", "coordinates": [ [ 629157.719728469965048, 5220830.236438751220703 ], [ 629164.537782287690789, 5220813.409271240234375 ] ] } },
{ "type": "Feature", "properties": { "label": "row", "length_m": 15.84457990685198 }, "geometry": { "type": "LineString", "coordinates": [ [ 629155.812710952828638, 5220828.105287170037627 ], [ 629161.693041229387745, 5220813.392285156063735 ] ] } },
{ "type": "Feature", "properties": { "label": "row", "length_m": 14.078920319622545 }, "geometry": { "type": "LineString", "coordinates": [ [ 629171.756447029183619, 5220828.350653839297593 ], [ 629177.166670990060084, 5220815.352751160040498 ] ] } },
{ "type": "Feature", "properties": { "label": "row", "length_m": 14.314676809701592 }, "geometry": { "type": "LineString", "coordinates": [ [ 629153.865152549813502, 5220826.820094680413604 ], [ 629158.812212753342465, 5220813.387426758185029 ] ] } },
{ "type": "Feature", "properties": { "label": "row", "length_m": 12.499148562225548 }, "geometry": { "type": "LineString", "coordinates": [ [ 629151.440711212228052, 5220825.001500320620835 ], [ 629156.235079956124537, 5220813.45841827429831 ] ] } },
{ "type": "Feature", "properties": { "label": "row", "length_m": 11.824781114225944 }, "geometry": { "type": "LineString", "coordinates": [ [ 629148.541361236711964, 5220824.200838470831513 ], [ 629153.446253204485402, 5220813.441308593377471 ] ] } },
{ "type": "Feature", "properties": { "label": "row", "length_m": 8.8294961746457847 }, "geometry": { "type": "LineString", "coordinates": [ [ 629146.969648170517758, 5220821.843795013613999 ], [ 629150.395319366594777, 5220813.705934142693877 ] ] } }
]
}
