{
"type": "FeatureCollection",
"name": "siret3_r007_c004__rows",
"crs": { "type": "name", "properties": { "name": "urn:ogc:def:crs:EPSG::32635" } },
"features": [
{ "type": "Feature", "properties": { "label": "row", "length_m": 6.807708829795418 }, "geometry": { "type": "LineString", "coordinates": [ [ 629204.52105712890625, 5220863.17751197796315 ], [ 629207.140581893967465, 5220856.893962860107422 ] ] } },
{ "type": "Feature", "properties": { "label": "row", "length_m": 8.2083363141474965 }, "geometry": { "type": "LineString", "coordinates": [ [ 629207.013554000877775, 5220863.229373931884766 ], [ 629210.457307434175164, 5220855.778377532958984 ] ] } },
{ "type": "Feature", "properties": { "label": "row", "length_m": 7.695802227782397 }, "geometry": { "type": "LineString", "coordinates": [ [ 629201.978803730104119, 5220863.200603103265166 ], [ 629204.814628982567228, 5220856.046340942382812 ] ] } },
{ "type": "Feature", "properties": { "label": "row", "length_m": 20.277214679148308 }, "geometry": { "type": "LineString", "coordinates": [ [ 629240.208163070725277, 5220863.24921646155417 ], [ 629248.180990600609221, 5220844.605197143740952 ] ] } },
{ "type": "Feature", "properties": { "label": "row", "length_m": 10.198785557508423 }, "geometry": { "type": "LineString", "coordinates": [ [ 629242.914415931794792, 5220863.219697952270508 ], [ 629246.988740921020508, 5220853.870093536563218 ] ] } },
{ "type": "Feature", "properties": { "label": "row", "length_m": 7.8894519828724965 }, "geometry": { "type": "LineString", "coordinates": [ [ 629199.611823844956234, 5220862.540423202328384 ], [ 629202.659659194992855, 5220855.263462829403579 ] ] } },
{ "type": "Feature", "properties": { "label": "row", "length_m": 22.702113967075132 }, "geometry": { "type": "LineString", "coordinates": [ [ 629237.643397903535515, 5220862.351351166144013 ], [ 629246.395200347993523, 5220841.403990173712373 ] ] } },
{ "type": "Feature", "properties": { "label": "row", "length_m": 7.8182982418535127 }, "geometry": { "type": "LineString", "coordinates": [ [ 629197.840125560760498, 5220860.223010254092515 ], [ 629200.652145004365593, 5220852.927920532412827 ] ] } },
{ "type": "Feature", "properties": { "label": "row", "length_m": 20.05525769578222 }, "geometry": { "type": "LineString", "coordinates": [ [ 629236.249320221017115, 5220858.692161560058594 ], [ 629244.23234329232946, 5220840.29420776385814 ] ] } },
{ "type": "Feature", "properties": { "label": "row", "length_m": 19.201306540220038 }, "geometry": { "type": "LineString", "coordinates": [ [ 629234.671930313110352, 5220856.838992309756577 ], [ 629241.808799743652344, 5220839.013301086612046 ] ] } },
{ "type": "Feature", "properties": { "label": "row", "length_m": 18.696336939581339 }, "geometry": { "type": "LineString", "coordinates": [ [ 629231.904875564621761, 5220856.239241790957749 ], [ 629239.427475738571957, 5220839.12306518573314 ] ] } },
{ "type": "Feature", "properties": { "label": "row", "length_m": 16.377060916783417 }, "geometry": { "type": "LineString", "coordinates": [ [ 629230.775517654488795, 5220852.865081024356186 ], [ 629236.92493591317907, 5220837.686386108398438 ] ] } },
{ "type": "Feature", "properties": { "label": "row", "length_m": 14.324272491255076 }, "geometry": { "type": "LineString", "coordinates": [ [ 629229.074776077293791, 5220850.151277923956513 ], [ 629234.532530212425627, 5220836.907498168759048 ] ] } },
{ "type": "Feature", "properties": { "label": "row", "length_m": 14.682785430881374 }, "geometry": { "type": "LineString", "coordinates": [ [ 629226.60726299288217, 5220849.688139343634248 ], [ 629232.145294952439144, 5220836.089816284365952 ] ] } },
{ "type": "Feature", "properties": { "label": "row", "length_m": 39.358186324326219 }, "geometry": { "type": "LineString", "coordinates": [ [ 629215.330097961472347, 5220850.480987548828125 ], [ 629230.141857910202816, 5220814.016229247674346 ] ] } },
{ "type": "Feature", "properties": { "label": "row", "length_m": 38.699051090539797 }, "geometry": { "type": "LineString", "coordinates": [ [ 629217.721854400704615, 5220850.645008849911392 ], [ 629232.956614685128443, 5220815.07088012713939 ] ] } },
{ "type": "Feature", "properties": { "label": "row", "length_m": 18.488103257276052 }, "geometry": { "type": "LineString", "coordinates": [ [ 629220.972855377243832, 5220849.837611389346421 ], [ 629227.987283325288445, 5220832.73182983417064 ] ] } },
{ "type": "Feature", "properties": { "label": "row", "length_m": 37.683166324489967 }, "geometry": { "type": "LineString", "coordinates": [ [ 629213.483421325683594, 5220848.373039245605469 ], [ 629227.626969909761101, 5220813.444812011905015 ] ] } },
{ "type": "Feature", "properties": { "label": "row", "length_m": 13.449999877058069 }, "geometry": { "type": "LineString", "coordinates": [ [ 629224.278967475984246, 5220848.422483826056123 ], [ 629229.451595306396484, 5220836.006912231445312 ] ] } },
{ "type": "Feature", "properties": { "label": "row", "length_m": 34.97571624420037 }, "geometry": { "type": "LineString", "coordinates": [ [ 629211.675440216087736, 5220845.81318817101419 ], [ 629225.034417724702507, 5220813.489227294921875 ] ] } },
{ "type": "Feature", "properties": { "label": "row", "length_m": 34.344351666713365 }, "geometry": { "type": "LineString", "coordinates": [ [ 629209.315138244652189, 5220845.241058349609375 ], [ 629222.06979827885516, 5220813.35292358417064 ] ] } },
{ "type": "Feature", "properties": { "label": "row", "length_m": 36.048223127854008 }, "geometry": { "type": "LineString", "coordinates": [ [ 629205.858260345528834, 5220846.903358459472656 ], [ 629219.431719970772974, 5220813.508215332403779 ] ] } },
{ "type": "Feature", "properties": { "label": "row", "length_m": 36.659497058922852 }, "geometry": { "type": "LineString", "coordinates": [ [ 629202.78160324099008, 5220847.193208312615752 ], [ 629216.795501708984375, 5220813.318005370907485 ] ] } },
{ "type": "Feature", "properties": { "label": "row", "length_m": 36.106964286035314 }, "geometry": { "type": "LineString", "coordinates": [ [ 629200.377005767892115, 5220846.811062621884048 ], [ 629214.064402771065943, 5220813.39896850567311 ] ] } },
{ "type": "Feature", "properties": { "label": "row", "length_m": 34.150478044960309 }, "geometry": { "type": "LineString", "coordinates": [ [ 629198.425164795015007, 5220845.064895629882812 ], [ 629211.295158386230469, 5220813.432342529296875 ] ] } },
{ "type": "Feature", "properties": { "label": "row", "length_m": 29.410300588990129 }, "geometry": { "type": "LineString", "coordinates": [ [ 629197.301484298775904, 5220840.619033050723374 ], [ 629208.408412170480005, 5220813.386663818731904 ] ] } },
{ "type": "Feature", "properties": { "label": "row", "length_m": 21.844959538283774 }, "geometry": { "type": "LineString", "coordinates": [ [ 629197.475039672921412, 5220833.610237121582031 ], [ 629205.742093658540398, 5220813.38999786414206 ] ] } },
{ "type": "Feature", "properties": { "label": "row", "length_m": 14.859472017170514 }, "geometry": { "type": "LineString", "coordinates": [ [ 629197.39042434701696, 5220827.476656722836196 ], [ 629202.811476898263209, 5220813.641336059197783 ] ] } },
{ "type": "Feature", "properties": { "label": "row", "length_m": 5.7743249436230606 }, "geometry": { "type": "LineString", "coordinates": [ [ 629231.448519039200619, 5220824.665319442749023 ], [ 629234.600087356637232, 5220819.826885223388672 ] ] } },
{ "type": "Feature", "properties": { "label": "row", "length_m": 6.8640657765925663 }, "geometry": { "type": "LineString", "coordinates": [ [ 629197.419519615243189, 5220820.340402221307158 ], [ 629200.130461883614771, 5220814.034358215518296 ] ] } }
]
}
